<gpx creator="Mission Planner 1.3.37 build 1.1.5917.13431 ArduCopter V3.2.1 (36b405fb)" xmlns="http://www.topografix.com/GPX/1/1"><trk><trkseg><trkpt lat="12.9919126" lon="80.2308634"><ele>24.48</ele><time>2016-07-08T22:55:28+05:30</time><course>5.07</course><roll>2.62</roll><pitch>0.6</pitch><mode /></trkpt><trkpt lat="12.9919087" lon="80.2308623"><ele>23.36</ele><time>2016-07-08T22:55:28+05:30</time><course>5.07</course><roll>2.62</roll><pitch>0.59</pitch><mode /></trkpt><trkpt lat="12.9919057" lon="80.230861"><ele>22.4</ele><time>2016-07-08T22:55:28+05:30</time><course>5.07</course><roll>2.6</roll><pitch>0.55</pitch><mode /></trkpt><trkpt lat="12.9919036" lon="80.2308595"><ele>21.7</ele><time>2016-07-08T22:55:28+05:30</time><course>5.06</course><roll>2.62</roll><pitch>0.54</pitch><mode /></trkpt><trkpt lat="12.9918997" lon="80.2308581"><ele>20.63</ele><time>2016-07-08T22:55:28+05:30</time><course>5.07</course><roll>2.66</roll><pitch>0.55</pitch><mode /></trkpt><trkpt lat="12.9918971" lon="80.2308573"><ele>20.02</ele><time>2016-07-08T22:55:29+05:30</time><course>5.07</course><roll>2.71</roll><pitch>0.53</pitch><mode /></trkpt><trkpt lat="12.9918954" lon="80.2308563"><ele>19.6</ele><time>2016-07-08T22:55:29+05:30</time><course>5.07</course><roll>2.74</roll><pitch>0.55</pitch><mode /></trkpt><trkpt lat="12.991894" lon="80.2308552"><ele>19.35</ele><time>2016-07-08T22:55:29+05:30</time><course>5.07</course><roll>2.75</roll><pitch>0.57</pitch><mode /></trkpt><trkpt lat="12.9918926" lon="80.2308546"><ele>19.16</ele><time>2016-07-08T22:55:29+05:30</time><course>5.06</course><roll>2.73</roll><pitch>0.6</pitch><mode /></trkpt><trkpt lat="12.9918909" lon="80.2308539"><ele>18.73</ele><time>2016-07-08T22:55:29+05:30</time><course>5.06</course><roll>2.71</roll><pitch>0.61</pitch><mode /></trkpt><trkpt lat="12.9918901" lon="80.2308533"><ele>18.64</ele><time>2016-07-08T22:55:30+05:30</time><course>5.06</course><roll>2.7</roll><pitch>0.59</pitch><mode /></trkpt><trkpt lat="12.9918894" lon="80.2308528"><ele>18.55</ele><time>2016-07-08T22:55:30+05:30</time><course>5.03</course><roll>2.69</roll><pitch>0.58</pitch><mode /></trkpt><trkpt lat="12.9918895" lon="80.2308526"><ele>18.65</ele><time>2016-07-08T22:55:30+05:30</time><course>5.01</course><roll>2.66</roll><pitch>0.59</pitch><mode /></trkpt><trkpt lat="12.9918888" lon="80.2308522"><ele>18.45</ele><time>2016-07-08T22:55:30+05:30</time><course>5</course><roll>2.65</roll><pitch>0.61</pitch><mode /></trkpt><trkpt lat="12.9918882" lon="80.2308521"><ele>18.21</ele><time>2016-07-08T22:55:30+05:30</time><course>5.07</course><roll>2.66</roll><pitch>0.62</pitch><mode /></trkpt><trkpt lat="12.991888" lon="80.2308524"><ele>18.1</ele><time>2016-07-08T22:55:31+05:30</time><course>5.1</course><roll>2.65</roll><pitch>0.61</pitch><mode /></trkpt><trkpt lat="12.9918878" lon="80.2308525"><ele>18.02</ele><time>2016-07-08T22:55:31+05:30</time><course>5.04</course><roll>2.63</roll><pitch>0.62</pitch><mode /></trkpt><trkpt lat="12.9918879" lon="80.2308526"><ele>18.02</ele><time>2016-07-08T22:55:31+05:30</time><course>5.1</course><roll>2.58</roll><pitch>0.61</pitch><mode /></trkpt><trkpt lat="12.9918877" lon="80.2308528"><ele>17.93</ele><time>2016-07-08T22:55:31+05:30</time><course>5.16</course><roll>2.58</roll><pitch>0.57</pitch><mode /></trkpt><trkpt lat="12.9918871" lon="80.2308527"><ele>17.71</ele><time>2016-07-08T22:55:32+05:30</time><course>5.12</course><roll>2.54</roll><pitch>0.6</pitch><mode /></trkpt><trkpt lat="12.9918862" lon="80.2308525"><ele>17.45</ele><time>2016-07-08T22:55:32+05:30</time><course>5.05</course><roll>2.58</roll><pitch>0.62</pitch><mode /></trkpt><trkpt lat="12.9918857" lon="80.2308524"><ele>17.3</ele><time>2016-07-08T22:55:32+05:30</time><course>5.12</course><roll>2.63</roll><pitch>0.59</pitch><mode /></trkpt><trkpt lat="12.9918853" lon="80.2308526"><ele>17.18</ele><time>2016-07-08T22:55:32+05:30</time><course>5.02</course><roll>2.63</roll><pitch>0.57</pitch><mode /></trkpt><trkpt lat="12.991885" lon="80.2308525"><ele>17.04</ele><time>2016-07-08T22:55:32+05:30</time><course>4.77</course><roll>2.74</roll><pitch>0.65</pitch><mode /></trkpt><trkpt lat="12.9918854" lon="80.2308524"><ele>17.1</ele><time>2016-07-08T22:55:33+05:30</time><course>4.41</course><roll>2.81</roll><pitch>0.7</pitch><mode /></trkpt><trkpt lat="12.9918857" lon="80.2308521"><ele>17.08</ele><time>2016-07-08T22:55:33+05:30</time><course>4.19</course><roll>2.88</roll><pitch>0.69</pitch><mode /></trkpt><trkpt lat="12.9918867" lon="80.230852"><ele>17.21</ele><time>2016-07-08T22:55:33+05:30</time><course>4.26</course><roll>2.91</roll><pitch>0.75</pitch><mode /></trkpt><trkpt lat="12.9918875" lon="80.2308517"><ele>17.3</ele><time>2016-07-08T22:55:33+05:30</time><course>4.44</course><roll>3.13</roll><pitch>1.97</pitch><mode /></trkpt><trkpt lat="12.9918882" lon="80.2308515"><ele>17.37</ele><time>2016-07-08T22:55:33+05:30</time><course>4.14</course><roll>3.58</roll><pitch>5.25</pitch><mode /></trkpt><trkpt lat="12.9918897" lon="80.2308513"><ele>17.67</ele><time>2016-07-08T22:55:34+05:30</time><course>3.41</course><roll>3.75</roll><pitch>7.59</pitch><mode /></trkpt><trkpt lat="12.9918925" lon="80.2308508"><ele>18.17</ele><time>2016-07-08T22:55:34+05:30</time><course>2.68</course><roll>3.41</roll><pitch>4.03</pitch><mode /></trkpt><trkpt lat="12.9918947" lon="80.2308497"><ele>18.35</ele><time>2016-07-08T22:55:34+05:30</time><course>3.5</course><roll>3.27</roll><pitch>1.45</pitch><mode /></trkpt><trkpt lat="12.9918969" lon="80.2308486"><ele>18.51</ele><time>2016-07-08T22:55:34+05:30</time><course>4.64</course><roll>3.35</roll><pitch>1.21</pitch><mode /></trkpt><trkpt lat="12.991899" lon="80.2308476"><ele>18.76</ele><time>2016-07-08T22:55:34+05:30</time><course>5.48</course><roll>3.59</roll><pitch>1.09</pitch><mode /></trkpt><trkpt lat="12.9918979" lon="80.2308463"><ele>18.42</ele><time>2016-07-08T22:55:35+05:30</time><course>7.27</course><roll>3.22</roll><pitch>1.13</pitch><mode /></trkpt><trkpt lat="12.9918933" lon="80.2308466"><ele>18</ele><time>2016-07-08T22:55:35+05:30</time><course>8.77</course><roll>3.44</roll><pitch>0.59</pitch><mode /></trkpt><trkpt lat="12.9918877" lon="80.2308467"><ele>17.39</ele><time>2016-07-08T22:55:35+05:30</time><course>9.27</course><roll>3.8</roll><pitch>0.22</pitch><mode /></trkpt><trkpt lat="12.9918826" lon="80.2308478"><ele>17.12</ele><time>2016-07-08T22:55:35+05:30</time><course>8.35</course><roll>3.34</roll><pitch>-0.04</pitch><mode /></trkpt><trkpt lat="12.9918776" lon="80.230849"><ele>16.9</ele><time>2016-07-08T22:55:35+05:30</time><course>6.2</course><roll>4.29</roll><pitch>-0.51</pitch><mode /></trkpt><trkpt lat="12.9918727" lon="80.2308499"><ele>16.62</ele><time>2016-07-08T22:55:36+05:30</time><course>4.97</course><roll>5.37</roll><pitch>-3.88</pitch><mode /></trkpt><trkpt lat="12.9918677" lon="80.2308506"><ele>16.28</ele><time>2016-07-08T22:55:36+05:30</time><course>5.81</course><roll>9.2</roll><pitch>-5.04</pitch><mode /></trkpt><trkpt lat="12.991863" lon="80.2308498"><ele>15.59</ele><time>2016-07-08T22:55:36+05:30</time><course>7.93</course><roll>4.86</roll><pitch>6.07</pitch><mode /></trkpt><trkpt lat="12.9918595" lon="80.2308501"><ele>15.33</ele><time>2016-07-08T22:55:36+05:30</time><course>10.35</course><roll>2.68</roll><pitch>5.52</pitch><mode /></trkpt><trkpt lat="12.9918546" lon="80.2308503"><ele>15.11</ele><time>2016-07-08T22:55:37+05:30</time><course>13.98</course><roll>2.42</roll><pitch>7.36</pitch><mode /></trkpt><trkpt lat="12.9918523" lon="80.2308515"><ele>15.07</ele><time>2016-07-08T22:55:37+05:30</time><course>13.07</course><roll>5.47</roll><pitch>0.08</pitch><mode /></trkpt><trkpt lat="12.9918511" lon="80.2308521"><ele>14.85</ele><time>2016-07-08T22:55:37+05:30</time><course>11.19</course><roll>2.38</roll><pitch>-0.44</pitch><mode /></trkpt><trkpt lat="12.9918499" lon="80.2308534"><ele>14.97</ele><time>2016-07-08T22:55:37+05:30</time><course>8.29</course><roll>2.91</roll><pitch>-1.7</pitch><mode /></trkpt><trkpt lat="12.9918501" lon="80.2308537"><ele>15.06</ele><time>2016-07-08T22:55:37+05:30</time><course>5.56</course><roll>2.65</roll><pitch>-4.05</pitch><mode /></trkpt><trkpt lat="12.9918506" lon="80.2308556"><ele>15.49</ele><time>2016-07-08T22:55:38+05:30</time><course>3.86</course><roll>3</roll><pitch>-7.62</pitch><mode /></trkpt><trkpt lat="12.9918502" lon="80.2308545"><ele>15</ele><time>2016-07-08T22:55:38+05:30</time><course>3.83</course><roll>4.53</roll><pitch>-10.67</pitch><mode /></trkpt><trkpt lat="12.9918482" lon="80.2308533"><ele>14.22</ele><time>2016-07-08T22:55:38+05:30</time><course>5.59</course><roll>5.92</roll><pitch>-3.03</pitch><mode /></trkpt><trkpt lat="12.9918464" lon="80.230851"><ele>13.18</ele><time>2016-07-08T22:55:38+05:30</time><course>6.59</course><roll>2.82</roll><pitch>0.87</pitch><mode /></trkpt><trkpt lat="12.9918459" lon="80.2308503"><ele>13.11</ele><time>2016-07-08T22:55:38+05:30</time><course>7.07</course><roll>2.61</roll><pitch>0.77</pitch><mode /></trkpt><trkpt lat="12.9918448" lon="80.2308506"><ele>12.96</ele><time>2016-07-08T22:55:39+05:30</time><course>7.17</course><roll>2.87</roll><pitch>1.21</pitch><mode /></trkpt><trkpt lat="12.9918435" lon="80.2308509"><ele>12.77</ele><time>2016-07-08T22:55:39+05:30</time><course>7.16</course><roll>2.65</roll><pitch>1.16</pitch><mode /></trkpt><trkpt lat="12.9918419" lon="80.2308511"><ele>12.45</ele><time>2016-07-08T22:55:39+05:30</time><course>7.91</course><roll>0.91</roll><pitch>0.73</pitch><mode /></trkpt><trkpt lat="12.9918422" lon="80.2308508"><ele>12.42</ele><time>2016-07-08T22:55:39+05:30</time><course>8.75</course><roll>-0.84</roll><pitch>0.25</pitch><mode /></trkpt><trkpt lat="12.9918423" lon="80.2308503"><ele>12.11</ele><time>2016-07-08T22:55:39+05:30</time><course>9.56</course><roll>-4.32</roll><pitch>-0.79</pitch><mode /></trkpt><trkpt lat="12.9918411" lon="80.2308496"><ele>11.44</ele><time>2016-07-08T22:55:40+05:30</time><course>9.38</course><roll>-3.14</roll><pitch>0.15</pitch><mode /></trkpt><trkpt lat="12.9918394" lon="80.2308487"><ele>10.63</ele><time>2016-07-08T22:55:40+05:30</time><course>9.1</course><roll>-2.31</roll><pitch>1.91</pitch><mode /></trkpt><trkpt lat="12.9918398" lon="80.2308496"><ele>10.61</ele><time>2016-07-08T22:55:40+05:30</time><course>8.51</course><roll>-0.88</roll><pitch>2.59</pitch><mode /></trkpt><trkpt lat="12.9918406" lon="80.23085"><ele>10.69</ele><time>2016-07-08T22:55:40+05:30</time><course>8.8</course><roll>3.6</roll><pitch>3.37</pitch><mode /></trkpt><trkpt lat="12.9918414" lon="80.2308517"><ele>11.05</ele><time>2016-07-08T22:55:41+05:30</time><course>9.01</course><roll>5.21</roll><pitch>2.24</pitch><mode /></trkpt><trkpt lat="12.991842" lon="80.2308531"><ele>11.26</ele><time>2016-07-08T22:55:41+05:30</time><course>8.73</course><roll>5.42</roll><pitch>0.41</pitch><mode /></trkpt><trkpt lat="12.9918409" lon="80.2308546"><ele>11.26</ele><time>2016-07-08T22:55:41+05:30</time><course>8.13</course><roll>5.58</roll><pitch>-0.44</pitch><mode /></trkpt><trkpt lat="12.991841" lon="80.230856"><ele>11.3</ele><time>2016-07-08T22:55:41+05:30</time><course>8.02</course><roll>5.15</roll><pitch>1.64</pitch><mode /></trkpt><trkpt lat="12.9918416" lon="80.230859"><ele>11.32</ele><time>2016-07-08T22:55:41+05:30</time><course>8.08</course><roll>4.38</roll><pitch>5.23</pitch><mode /></trkpt><trkpt lat="12.9918413" lon="80.23086"><ele>11.27</ele><time>2016-07-08T22:55:42+05:30</time><course>7.98</course><roll>3.48</roll><pitch>5.04</pitch><mode /></trkpt><trkpt lat="12.9918417" lon="80.2308607"><ele>11.2</ele><time>2016-07-08T22:55:42+05:30</time><course>8.35</course><roll>4.73</roll><pitch>2.87</pitch><mode /></trkpt><trkpt lat="12.9918418" lon="80.2308617"><ele>11.21</ele><time>2016-07-08T22:55:42+05:30</time><course>8.3</course><roll>4.98</roll><pitch>2.59</pitch><mode /></trkpt><trkpt lat="12.991842" lon="80.2308632"><ele>11.1</ele><time>2016-07-08T22:55:43+05:30</time><course>8.21</course><roll>4.61</roll><pitch>1.02</pitch><mode /></trkpt><trkpt lat="12.9918419" lon="80.2308642"><ele>10.96</ele><time>2016-07-08T22:55:43+05:30</time><course>8.33</course><roll>3.78</roll><pitch>-0.05</pitch><mode /></trkpt><trkpt lat="12.9918456" lon="80.230864"><ele>11.55</ele><time>2016-07-08T22:55:43+05:30</time><course>8.15</course><roll>3.28</roll><pitch>-0.71</pitch><mode /></trkpt><trkpt lat="12.9918498" lon="80.2308647"><ele>12.04</ele><time>2016-07-08T22:55:43+05:30</time><course>7.95</course><roll>3.81</roll><pitch>1.2</pitch><mode /></trkpt><trkpt lat="12.9918518" lon="80.2308645"><ele>12.22</ele><time>2016-07-08T22:55:43+05:30</time><course>7.92</course><roll>3.87</roll><pitch>3.25</pitch><mode /></trkpt><trkpt lat="12.9918515" lon="80.2308657"><ele>12.41</ele><time>2016-07-08T22:55:44+05:30</time><course>7.95</course><roll>3.74</roll><pitch>3.68</pitch><mode /></trkpt><trkpt lat="12.9918519" lon="80.2308662"><ele>12.62</ele><time>2016-07-08T22:55:44+05:30</time><course>7.96</course><roll>3.85</roll><pitch>2.73</pitch><mode /></trkpt><trkpt lat="12.9918537" lon="80.2308664"><ele>12.96</ele><time>2016-07-08T22:55:44+05:30</time><course>8.05</course><roll>3.71</roll><pitch>1.56</pitch><mode /></trkpt><trkpt lat="12.9918553" lon="80.2308653"><ele>13.34</ele><time>2016-07-08T22:55:44+05:30</time><course>8.03</course><roll>4.1</roll><pitch>0.29</pitch><mode /></trkpt><trkpt lat="12.9918554" lon="80.2308667"><ele>13.31</ele><time>2016-07-08T22:55:44+05:30</time><course>8.07</course><roll>4.13</roll><pitch>-0.4</pitch><mode /></trkpt><trkpt lat="12.9918566" lon="80.2308663"><ele>13.36</ele><time>2016-07-08T22:55:45+05:30</time><course>8.24</course><roll>4.02</roll><pitch>-1.01</pitch><mode /></trkpt><trkpt lat="12.9918579" lon="80.230866"><ele>13.44</ele><time>2016-07-08T22:55:45+05:30</time><course>8.47</course><roll>4.11</roll><pitch>-0.57</pitch><mode /></trkpt><trkpt lat="12.9918606" lon="80.2308663"><ele>13.68</ele><time>2016-07-08T22:55:45+05:30</time><course>8.52</course><roll>4.04</roll><pitch>-0.17</pitch><mode /></trkpt><trkpt lat="12.9918656" lon="80.2308671"><ele>14.16</ele><time>2016-07-08T22:55:45+05:30</time><course>8.65</course><roll>3.72</roll><pitch>0.07</pitch><mode /></trkpt><trkpt lat="12.991868" lon="80.2308655"><ele>14.65</ele><time>2016-07-08T22:55:45+05:30</time><course>8.56</course><roll>4.15</roll><pitch>0.24</pitch><mode /></trkpt><trkpt lat="12.9918711" lon="80.2308651"><ele>15.02</ele><time>2016-07-08T22:55:46+05:30</time><course>8.36</course><roll>4.31</roll><pitch>0.57</pitch><mode /></trkpt><trkpt lat="12.9918739" lon="80.2308643"><ele>15.36</ele><time>2016-07-08T22:55:46+05:30</time><course>8.32</course><roll>4.29</roll><pitch>0.62</pitch><mode /></trkpt><trkpt lat="12.9918762" lon="80.2308635"><ele>15.82</ele><time>2016-07-08T22:55:46+05:30</time><course>8.3</course><roll>0.66</roll><pitch>3.22</pitch><mode /></trkpt><trkpt lat="12.9918789" lon="80.2308622"><ele>16.4</ele><time>2016-07-08T22:55:46+05:30</time><course>8.43</course><roll>0.4</roll><pitch>3.67</pitch><mode /></trkpt><trkpt lat="12.9918812" lon="80.2308614"><ele>16.91</ele><time>2016-07-08T22:55:46+05:30</time><course>8.57</course><roll>3.03</roll><pitch>1.06</pitch><mode /></trkpt><trkpt lat="12.9918825" lon="80.2308609"><ele>17.32</ele><time>2016-07-08T22:55:47+05:30</time><course>8.42</course><roll>3.75</roll><pitch>0.44</pitch><mode /></trkpt><trkpt lat="12.991884" lon="80.2308595"><ele>17.59</ele><time>2016-07-08T22:55:47+05:30</time><course>8.37</course><roll>3.8</roll><pitch>-0.06</pitch><mode /></trkpt><trkpt lat="12.9918849" lon="80.2308598"><ele>18.08</ele><time>2016-07-08T22:55:47+05:30</time><course>8.22</course><roll>3.63</roll><pitch>0.08</pitch><mode /></trkpt><trkpt lat="12.9918856" lon="80.2308585"><ele>18.32</ele><time>2016-07-08T22:55:47+05:30</time><course>8.12</course><roll>3.65</roll><pitch>-0.05</pitch><mode /></trkpt><trkpt lat="12.9918867" lon="80.2308579"><ele>19.02</ele><time>2016-07-08T22:55:47+05:30</time><course>7.97</course><roll>4.24</roll><pitch>0.79</pitch><mode /></trkpt><trkpt lat="12.9918873" lon="80.2308585"><ele>19.58</ele><time>2016-07-08T22:55:48+05:30</time><course>7.78</course><roll>4.1</roll><pitch>0.15</pitch><mode /></trkpt><trkpt lat="12.9918879" lon="80.2308572"><ele>19.89</ele><time>2016-07-08T22:55:48+05:30</time><course>7.8</course><roll>4.2</roll><pitch>0.84</pitch><mode /></trkpt><trkpt lat="12.9918882" lon="80.2308568"><ele>20.21</ele><time>2016-07-08T22:55:48+05:30</time><course>7.98</course><roll>4.27</roll><pitch>-0.35</pitch><mode /></trkpt><trkpt lat="12.991888" lon="80.2308564"><ele>20.33</ele><time>2016-07-08T22:55:48+05:30</time><course>8.19</course><roll>3.87</roll><pitch>1.08</pitch><mode /></trkpt><trkpt lat="12.9918879" lon="80.2308561"><ele>20.44</ele><time>2016-07-08T22:55:48+05:30</time><course>8.24</course><roll>4.57</roll><pitch>3.74</pitch><mode /></trkpt><trkpt lat="12.9918902" lon="80.230856"><ele>20.86</ele><time>2016-07-08T22:55:49+05:30</time><course>8.42</course><roll>4.94</roll><pitch>6.25</pitch><mode /></trkpt><trkpt lat="12.9918909" lon="80.2308556"><ele>21.02</ele><time>2016-07-08T22:55:49+05:30</time><course>8.6</course><roll>4.74</roll><pitch>1.64</pitch><mode /></trkpt><trkpt lat="12.9918907" lon="80.2308552"><ele>21.1</ele><time>2016-07-08T22:55:49+05:30</time><course>8.58</course><roll>4.37</roll><pitch>-0.32</pitch><mode /></trkpt><trkpt lat="12.9918916" lon="80.2308539"><ele>21.4</ele><time>2016-07-08T22:55:49+05:30</time><course>8.54</course><roll>4.32</roll><pitch>-0.88</pitch><mode /></trkpt><trkpt lat="12.9918909" lon="80.230853"><ele>21.32</ele><time>2016-07-08T22:55:50+05:30</time><course>8.39</course><roll>1.73</roll><pitch>-0.39</pitch><mode /></trkpt><trkpt lat="12.9918911" lon="80.2308522"><ele>21.16</ele><time>2016-07-08T22:55:50+05:30</time><course>8.3</course><roll>0.52</roll><pitch>-0.54</pitch><mode /></trkpt><trkpt lat="12.9918917" lon="80.2308511"><ele>21.15</ele><time>2016-07-08T22:55:50+05:30</time><course>8.29</course><roll>0.37</roll><pitch>0</pitch><mode /></trkpt><trkpt lat="12.9918916" lon="80.2308503"><ele>21.28</ele><time>2016-07-08T22:55:50+05:30</time><course>8.3</course><roll>0.54</roll><pitch>-0.11</pitch><mode /></trkpt><trkpt lat="12.9918902" lon="80.2308502"><ele>21.53</ele><time>2016-07-08T22:55:50+05:30</time><course>8.23</course><roll>0.63</roll><pitch>0.35</pitch><mode /></trkpt><trkpt lat="12.9918904" lon="80.2308498"><ele>21.7</ele><time>2016-07-08T22:55:51+05:30</time><course>8.25</course><roll>1.43</roll><pitch>0.77</pitch><mode /></trkpt><trkpt lat="12.9918894" lon="80.23085"><ele>22</ele><time>2016-07-08T22:55:51+05:30</time><course>8.52</course><roll>4.96</roll><pitch>0.51</pitch><mode /></trkpt><trkpt lat="12.9918891" lon="80.2308492"><ele>22.03</ele><time>2016-07-08T22:55:51+05:30</time><course>8.83</course><roll>4.45</roll><pitch>0.03</pitch><mode /></trkpt><trkpt lat="12.991889" lon="80.2308485"><ele>22.21</ele><time>2016-07-08T22:55:51+05:30</time><course>9.29</course><roll>4.01</roll><pitch>-0.37</pitch><mode /></trkpt><trkpt lat="12.9918883" lon="80.2308482"><ele>22.2</ele><time>2016-07-08T22:55:52+05:30</time><course>9.72</course><roll>3.52</roll><pitch>0.06</pitch><mode /></trkpt><trkpt lat="12.9918877" lon="80.2308479"><ele>22.52</ele><time>2016-07-08T22:55:52+05:30</time><course>10.38</course><roll>1</roll><pitch>0.14</pitch><mode /></trkpt><trkpt lat="12.9918881" lon="80.2308474"><ele>22.92</ele><time>2016-07-08T22:55:52+05:30</time><course>10.98</course><roll>0.8</roll><pitch>0.33</pitch><mode /></trkpt><trkpt lat="12.9918875" lon="80.2308478"><ele>23.05</ele><time>2016-07-08T22:55:52+05:30</time><course>11.43</course><roll>1.02</roll><pitch>0.42</pitch><mode /></trkpt><trkpt lat="12.991888" lon="80.2308471"><ele>23.18</ele><time>2016-07-08T22:55:52+05:30</time><course>11.52</course><roll>0.82</roll><pitch>1.26</pitch><mode /></trkpt><trkpt lat="12.9918877" lon="80.2308477"><ele>23.3</ele><time>2016-07-08T22:55:53+05:30</time><course>11.5</course><roll>1.17</roll><pitch>2.1</pitch><mode /></trkpt><trkpt lat="12.9918874" lon="80.2308491"><ele>23.4</ele><time>2016-07-08T22:55:53+05:30</time><course>11.06</course><roll>0.72</roll><pitch>2.22</pitch><mode /></trkpt><trkpt lat="12.991887" lon="80.2308497"><ele>23.57</ele><time>2016-07-08T22:55:53+05:30</time><course>10.54</course><roll>0.2</roll><pitch>1.9</pitch><mode /></trkpt><trkpt lat="12.991888" lon="80.23085"><ele>23.79</ele><time>2016-07-08T22:55:53+05:30</time><course>10</course><roll>0.35</roll><pitch>1.38</pitch><mode /></trkpt><trkpt lat="12.9918886" lon="80.2308502"><ele>24.11</ele><time>2016-07-08T22:55:53+05:30</time><course>9.12</course><roll>0.92</roll><pitch>0.59</pitch><mode /></trkpt><trkpt lat="12.9918893" lon="80.2308506"><ele>24.19</ele><time>2016-07-08T22:55:54+05:30</time><course>8.39</course><roll>3.36</roll><pitch>1.31</pitch><mode /></trkpt><trkpt lat="12.991888" lon="80.2308514"><ele>24.37</ele><time>2016-07-08T22:55:54+05:30</time><course>7.84</course><roll>3.73</roll><pitch>1.97</pitch><mode /></trkpt><trkpt lat="12.9918887" lon="80.2308512"><ele>24.65</ele><time>2016-07-08T22:55:54+05:30</time><course>7.65</course><roll>4</roll><pitch>2.13</pitch><mode /></trkpt><trkpt lat="12.9918888" lon="80.2308517"><ele>24.82</ele><time>2016-07-08T22:55:54+05:30</time><course>7.76</course><roll>2.08</roll><pitch>2.69</pitch><mode /></trkpt><trkpt lat="12.9918884" lon="80.2308511"><ele>25.24</ele><time>2016-07-08T22:55:54+05:30</time><course>7.85</course><roll>-2.32</roll><pitch>3.49</pitch><mode /></trkpt><trkpt lat="12.9918891" lon="80.2308517"><ele>25.51</ele><time>2016-07-08T22:55:55+05:30</time><course>7.82</course><roll>-4.39</roll><pitch>3.35</pitch><mode /></trkpt><trkpt lat="12.9918895" lon="80.2308523"><ele>25.66</ele><time>2016-07-08T22:55:55+05:30</time><course>7.43</course><roll>-6.95</roll><pitch>3.09</pitch><mode /></trkpt><trkpt lat="12.9918892" lon="80.2308529"><ele>25.86</ele><time>2016-07-08T22:55:55+05:30</time><course>6.87</course><roll>-8.28</roll><pitch>2.75</pitch><mode /></trkpt><trkpt lat="12.9918905" lon="80.2308545"><ele>26.24</ele><time>2016-07-08T22:55:55+05:30</time><course>6</course><roll>-8.37</roll><pitch>3.27</pitch><mode /></trkpt><trkpt lat="12.9918925" lon="80.2308567"><ele>26.7</ele><time>2016-07-08T22:55:55+05:30</time><course>5.47</course><roll>-7.05</roll><pitch>2.72</pitch><mode /></trkpt><trkpt lat="12.9918933" lon="80.2308591"><ele>27.08</ele><time>2016-07-08T22:55:56+05:30</time><course>5.28</course><roll>14.26</roll><pitch>1.54</pitch><mode /></trkpt><trkpt lat="12.9918945" lon="80.2308614"><ele>27.73</ele><time>2016-07-08T22:55:56+05:30</time><course>5.46</course><roll>34.48</roll><pitch>1.93</pitch><mode /></trkpt><trkpt lat="12.9918976" lon="80.2308616"><ele>28.32</ele><time>2016-07-08T22:55:56+05:30</time><course>5.88</course><roll>35.04</roll><pitch>3.39</pitch><mode /></trkpt><trkpt lat="12.9919027" lon="80.2308613"><ele>28.96</ele><time>2016-07-08T22:55:56+05:30</time><course>5.76</course><roll>16.54</roll><pitch>8.37</pitch><mode /></trkpt><trkpt lat="12.991907" lon="80.2308604"><ele>29.36</ele><time>2016-07-08T22:55:56+05:30</time><course>4.31</course><roll>-0.55</roll><pitch>9.33</pitch><mode /></trkpt><trkpt lat="12.9919072" lon="80.2308585"><ele>29.46</ele><time>2016-07-08T22:55:57+05:30</time><course>4.9</course><roll>-9.25</roll><pitch>7.4</pitch><mode /></trkpt><trkpt lat="12.9919076" lon="80.2308568"><ele>29.67</ele><time>2016-07-08T22:55:57+05:30</time><course>5.94</course><roll>-0.2</roll><pitch>5.37</pitch><mode /></trkpt><trkpt lat="12.991906" lon="80.2308543"><ele>29.85</ele><time>2016-07-08T22:55:57+05:30</time><course>6.05</course><roll>-0.22</roll><pitch>2.06</pitch><mode /></trkpt><trkpt lat="12.9919063" lon="80.230855"><ele>29.93</ele><time>2016-07-08T22:55:57+05:30</time><course>5.72</course><roll>1.94</roll><pitch>-0.72</pitch><mode /></trkpt><trkpt lat="12.9919103" lon="80.2308526"><ele>30.38</ele><time>2016-07-08T22:55:57+05:30</time><course>5.31</course><roll>1.77</roll><pitch>-4.72</pitch><mode /></trkpt><trkpt lat="12.9919115" lon="80.2308513"><ele>30.51</ele><time>2016-07-08T22:55:58+05:30</time><course>4.91</course><roll>2.32</roll><pitch>-10.61</pitch><mode /></trkpt><trkpt lat="12.9919141" lon="80.23085"><ele>30.84</ele><time>2016-07-08T22:55:58+05:30</time><course>4.57</course><roll>2.1</roll><pitch>-15.23</pitch><mode /></trkpt><trkpt lat="12.9919154" lon="80.2308482"><ele>30.76</ele><time>2016-07-08T22:55:58+05:30</time><course>4.21</course><roll>2.1</roll><pitch>-15.57</pitch><mode /></trkpt><trkpt lat="12.9919157" lon="80.2308464"><ele>30.69</ele><time>2016-07-08T22:55:58+05:30</time><course>4.01</course><roll>3.02</roll><pitch>-5.58</pitch><mode /></trkpt><trkpt lat="12.9919158" lon="80.2308448"><ele>30.51</ele><time>2016-07-08T22:55:58+05:30</time><course>4.12</course><roll>2.83</roll><pitch>16.35</pitch><mode /></trkpt><trkpt lat="12.9919156" lon="80.2308444"><ele>30.11</ele><time>2016-07-08T22:55:59+05:30</time><course>4.72</course><roll>2.87</roll><pitch>27.27</pitch><mode /></trkpt><trkpt lat="12.9919153" lon="80.2308442"><ele>29.45</ele><time>2016-07-08T22:55:59+05:30</time><course>6.4</course><roll>3.22</roll><pitch>19.8</pitch><mode /></trkpt><trkpt lat="12.9919159" lon="80.2308443"><ele>28.97</ele><time>2016-07-08T22:55:59+05:30</time><course>8.11</course><roll>3.71</roll><pitch>0.03</pitch><mode /></trkpt><trkpt lat="12.9919169" lon="80.2308458"><ele>28.65</ele><time>2016-07-08T22:55:59+05:30</time><course>8.35</course><roll>1.9</roll><pitch>-3.16</pitch><mode /></trkpt><trkpt lat="12.9919184" lon="80.2308462"><ele>28.46</ele><time>2016-07-08T22:55:59+05:30</time><course>7.21</course><roll>4.66</roll><pitch>-4.58</pitch><mode /></trkpt><trkpt lat="12.9919197" lon="80.230846"><ele>27.87</ele><time>2016-07-08T22:56:00+05:30</time><course>5.01</course><roll>6.05</roll><pitch>-2.21</pitch><mode /></trkpt><trkpt lat="12.9919209" lon="80.2308459"><ele>27.73</ele><time>2016-07-08T22:56:00+05:30</time><course>4.6</course><roll>4.61</roll><pitch>0.56</pitch><mode /></trkpt><trkpt lat="12.9919205" lon="80.2308457"><ele>27.52</ele><time>2016-07-08T22:56:00+05:30</time><course>4.46</course><roll>1.97</roll><pitch>1.02</pitch><mode /></trkpt><trkpt lat="12.9919203" lon="80.2308453"><ele>27.33</ele><time>2016-07-08T22:56:00+05:30</time><course>5.01</course><roll>1.67</roll><pitch>1.31</pitch><mode /></trkpt><trkpt lat="12.9919209" lon="80.2308441"><ele>27.31</ele><time>2016-07-08T22:56:01+05:30</time><course>5.3</course><roll>2.6</roll><pitch>2.7</pitch><mode /></trkpt><trkpt lat="12.9919208" lon="80.2308437"><ele>27.18</ele><time>2016-07-08T22:56:01+05:30</time><course>5.8</course><roll>4.95</roll><pitch>4.76</pitch><mode /></trkpt><trkpt lat="12.9919205" lon="80.2308439"><ele>27.12</ele><time>2016-07-08T22:56:01+05:30</time><course>6.08</course><roll>1.85</roll><pitch>4.09</pitch><mode /></trkpt><trkpt lat="12.9919208" lon="80.2308438"><ele>27.05</ele><time>2016-07-08T22:56:01+05:30</time><course>6.59</course><roll>1.38</roll><pitch>3.81</pitch><mode /></trkpt><trkpt lat="12.9919204" lon="80.2308442"><ele>26.86</ele><time>2016-07-08T22:56:01+05:30</time><course>6.77</course><roll>1.13</roll><pitch>3.81</pitch><mode /></trkpt><trkpt lat="12.9919215" lon="80.2308436"><ele>26.9</ele><time>2016-07-08T22:56:02+05:30</time><course>6.74</course><roll>-1.46</roll><pitch>5.34</pitch><mode /></trkpt><trkpt lat="12.9919224" lon="80.2308433"><ele>26.87</ele><time>2016-07-08T22:56:02+05:30</time><course>6.57</course><roll>-4.32</roll><pitch>6.29</pitch><mode /></trkpt><trkpt lat="12.9919232" lon="80.2308437"><ele>26.69</ele><time>2016-07-08T22:56:02+05:30</time><course>6.63</course><roll>0.59</roll><pitch>6.64</pitch><mode /></trkpt><trkpt lat="12.9919245" lon="80.2308436"><ele>26.69</ele><time>2016-07-08T22:56:02+05:30</time><course>6.62</course><roll>5.39</roll><pitch>5.54</pitch><mode /></trkpt><trkpt lat="12.9919259" lon="80.2308444"><ele>26.74</ele><time>2016-07-08T22:56:02+05:30</time><course>6.29</course><roll>6.37</roll><pitch>-6.34</pitch><mode /></trkpt><trkpt lat="12.9919252" lon="80.2308453"><ele>26.87</ele><time>2016-07-08T22:56:03+05:30</time><course>6.52</course><roll>5.59</roll><pitch>-13.4</pitch><mode /></trkpt><trkpt lat="12.9919246" lon="80.2308463"><ele>26.84</ele><time>2016-07-08T22:56:03+05:30</time><course>6.87</course><roll>4.55</roll><pitch>-12.07</pitch><mode /></trkpt><trkpt lat="12.991926" lon="80.2308447"><ele>26.9</ele><time>2016-07-08T22:56:03+05:30</time><course>6.89</course><roll>4.21</roll><pitch>0.46</pitch><mode /></trkpt><trkpt lat="12.9919267" lon="80.2308436"><ele>27.04</ele><time>2016-07-08T22:56:03+05:30</time><course>6.66</course><roll>3.22</roll><pitch>10.82</pitch><mode /></trkpt><trkpt lat="12.9919271" lon="80.2308424"><ele>27.03</ele><time>2016-07-08T22:56:03+05:30</time><course>6.51</course><roll>-0.2</roll><pitch>13.44</pitch><mode /></trkpt><trkpt lat="12.9919255" lon="80.230842"><ele>27.04</ele><time>2016-07-08T22:56:04+05:30</time><course>6.29</course><roll>-1.23</roll><pitch>13.88</pitch><mode /></trkpt><trkpt lat="12.9919267" lon="80.2308405"><ele>27.47</ele><time>2016-07-08T22:56:04+05:30</time><course>6.4</course><roll>-1.2</roll><pitch>9.82</pitch><mode /></trkpt><trkpt lat="12.9919277" lon="80.2308429"><ele>27.54</ele><time>2016-07-08T22:56:04+05:30</time><course>6.85</course><roll>0.38</roll><pitch>-4.06</pitch><mode /></trkpt><trkpt lat="12.9919262" lon="80.2308469"><ele>27.73</ele><time>2016-07-08T22:56:04+05:30</time><course>6.55</course><roll>2.55</roll><pitch>-11.79</pitch><mode /></trkpt><trkpt lat="12.991922" lon="80.230851"><ele>28.13</ele><time>2016-07-08T22:56:04+05:30</time><course>6.24</course><roll>4.15</roll><pitch>-14.26</pitch><mode /></trkpt><trkpt lat="12.9919229" lon="80.2308515"><ele>28.46</ele><time>2016-07-08T22:56:05+05:30</time><course>6.22</course><roll>4.05</roll><pitch>-12.65</pitch><mode /></trkpt><trkpt lat="12.9919236" lon="80.2308511"><ele>28.61</ele><time>2016-07-08T22:56:05+05:30</time><course>6.11</course><roll>4.16</roll><pitch>1.68</pitch><mode /></trkpt><trkpt lat="12.9919237" lon="80.2308513"><ele>28.88</ele><time>2016-07-08T22:56:05+05:30</time><course>5.2</course><roll>3.83</roll><pitch>5.72</pitch><mode /></trkpt><trkpt lat="12.9919232" lon="80.2308514"><ele>29.12</ele><time>2016-07-08T22:56:05+05:30</time><course>4.37</course><roll>3.66</roll><pitch>4.43</pitch><mode /></trkpt><trkpt lat="12.9919243" lon="80.230851"><ele>29.17</ele><time>2016-07-08T22:56:05+05:30</time><course>3.55</course><roll>4.19</roll><pitch>1.74</pitch><mode /></trkpt><trkpt lat="12.9919251" lon="80.2308511"><ele>29.07</ele><time>2016-07-08T22:56:06+05:30</time><course>3.11</course><roll>3.6</roll><pitch>-4.76</pitch><mode /></trkpt><trkpt lat="12.9919261" lon="80.2308505"><ele>28.97</ele><time>2016-07-08T22:56:06+05:30</time><course>3.22</course><roll>3.8</roll><pitch>-7.15</pitch><mode /></trkpt><trkpt lat="12.9919249" lon="80.2308518"><ele>28.38</ele><time>2016-07-08T22:56:06+05:30</time><course>3.69</course><roll>3.55</roll><pitch>-7</pitch><mode /></trkpt><trkpt lat="12.991922" lon="80.2308549"><ele>27.6</ele><time>2016-07-08T22:56:06+05:30</time><course>4.16</course><roll>4.06</roll><pitch>-4.32</pitch><mode /></trkpt><trkpt lat="12.9919225" lon="80.2308542"><ele>27.38</ele><time>2016-07-08T22:56:06+05:30</time><course>4.62</course><roll>2.77</roll><pitch>-1.97</pitch><mode /></trkpt><trkpt lat="12.9919229" lon="80.2308531"><ele>27.12</ele><time>2016-07-08T22:56:07+05:30</time><course>5.36</course><roll>-1.09</roll><pitch>2.77</pitch><mode /></trkpt><trkpt lat="12.9919237" lon="80.2308528"><ele>27.04</ele><time>2016-07-08T22:56:07+05:30</time><course>5.84</course><roll>-0.43</roll><pitch>1.89</pitch><mode /></trkpt><trkpt lat="12.9919233" lon="80.2308527"><ele>26.68</ele><time>2016-07-08T22:56:07+05:30</time><course>6.21</course><roll>0.93</roll><pitch>-0.28</pitch><mode /></trkpt><trkpt lat="12.9919223" lon="80.2308528"><ele>26.14</ele><time>2016-07-08T22:56:07+05:30</time><course>6.64</course><roll>1.47</roll><pitch>-0.54</pitch><mode /></trkpt><trkpt lat="12.9919211" lon="80.2308532"><ele>25.84</ele><time>2016-07-08T22:56:08+05:30</time><course>7.16</course><roll>2.52</roll><pitch>-0.7</pitch><mode /></trkpt><trkpt lat="12.9919217" lon="80.2308531"><ele>25.63</ele><time>2016-07-08T22:56:08+05:30</time><course>7.64</course><roll>3.28</roll><pitch>-1.44</pitch><mode /></trkpt><trkpt lat="12.991923" lon="80.230852"><ele>25.67</ele><time>2016-07-08T22:56:08+05:30</time><course>7.93</course><roll>2.88</roll><pitch>-1.71</pitch><mode /></trkpt><trkpt lat="12.9919236" lon="80.2308526"><ele>25.56</ele><time>2016-07-08T22:56:08+05:30</time><course>8.13</course><roll>2.3</roll><pitch>-1.93</pitch><mode /></trkpt><trkpt lat="12.991925" lon="80.2308519"><ele>25.54</ele><time>2016-07-08T22:56:08+05:30</time><course>8.19</course><roll>1.57</roll><pitch>-2.68</pitch><mode /></trkpt><trkpt lat="12.9919239" lon="80.2308539"><ele>25.15</ele><time>2016-07-08T22:56:09+05:30</time><course>8.22</course><roll>1.1</roll><pitch>-0.76</pitch><mode /></trkpt><trkpt lat="12.9919222" lon="80.2308549"><ele>25.09</ele><time>2016-07-08T22:56:09+05:30</time><course>8.19</course><roll>-1.7</roll><pitch>-0.17</pitch><mode /></trkpt><trkpt lat="12.9919202" lon="80.2308557"><ele>25.18</ele><time>2016-07-08T22:56:09+05:30</time><course>7.69</course><roll>-2.54</roll><pitch>-0.41</pitch><mode /></trkpt><trkpt lat="12.9919197" lon="80.2308548"><ele>25.24</ele><time>2016-07-08T22:56:09+05:30</time><course>6.93</course><roll>-2.93</roll><pitch>-1.17</pitch><mode /></trkpt><trkpt lat="12.9919191" lon="80.2308559"><ele>24.88</ele><time>2016-07-08T22:56:09+05:30</time><course>6.52</course><roll>2.19</roll><pitch>-5.65</pitch><mode /></trkpt><trkpt lat="12.99192" lon="80.2308554"><ele>25.2</ele><time>2016-07-08T22:56:10+05:30</time><course>6.89</course><roll>6.27</roll><pitch>7.73</pitch><mode /></trkpt><trkpt lat="12.9919184" lon="80.2308545"><ele>25.36</ele><time>2016-07-08T22:56:10+05:30</time><course>6.82</course><roll>5.1</roll><pitch>13.75</pitch><mode /></trkpt><trkpt lat="12.9919183" lon="80.2308543"><ele>25.62</ele><time>2016-07-08T22:56:10+05:30</time><course>6.94</course><roll>5.31</roll><pitch>13.56</pitch><mode /></trkpt><trkpt lat="12.9919176" lon="80.2308551"><ele>25.86</ele><time>2016-07-08T22:56:11+05:30</time><course>6.91</course><roll>4.39</roll><pitch>12.06</pitch><mode /></trkpt><trkpt lat="12.9919185" lon="80.2308555"><ele>26.05</ele><time>2016-07-08T22:56:11+05:30</time><course>6.68</course><roll>3.69</roll><pitch>11.08</pitch><mode /></trkpt><trkpt lat="12.9919179" lon="80.230857"><ele>26.13</ele><time>2016-07-08T22:56:11+05:30</time><course>7.14</course><roll>3.76</roll><pitch>7.75</pitch><mode /></trkpt><trkpt lat="12.9919167" lon="80.2308587"><ele>26.01</ele><time>2016-07-08T22:56:11+05:30</time><course>7.27</course><roll>4.28</roll><pitch>-0.65</pitch><mode /></trkpt><trkpt lat="12.9919168" lon="80.2308603"><ele>26</ele><time>2016-07-08T22:56:11+05:30</time><course>7.34</course><roll>3.35</roll><pitch>-3.59</pitch><mode /></trkpt><trkpt lat="12.9919167" lon="80.2308617"><ele>25.96</ele><time>2016-07-08T22:56:12+05:30</time><course>7.28</course><roll>3.78</roll><pitch>-3.34</pitch><mode /></trkpt><trkpt lat="12.9919172" lon="80.230863"><ele>26.12</ele><time>2016-07-08T22:56:12+05:30</time><course>6.98</course><roll>3.93</roll><pitch>-2.76</pitch><mode /></trkpt><trkpt lat="12.9919174" lon="80.2308642"><ele>26.25</ele><time>2016-07-08T22:56:12+05:30</time><course>6.84</course><roll>3.87</roll><pitch>-1.68</pitch><mode /></trkpt><trkpt lat="12.9919169" lon="80.2308646"><ele>26.26</ele><time>2016-07-08T22:56:12+05:30</time><course>6.42</course><roll>3.31</roll><pitch>-1.11</pitch><mode /></trkpt><trkpt lat="12.9919172" lon="80.2308639"><ele>26.6</ele><time>2016-07-08T22:56:12+05:30</time><course>5.79</course><roll>3.29</roll><pitch>7.23</pitch><mode /></trkpt><trkpt lat="12.9919174" lon="80.2308635"><ele>26.62</ele><time>2016-07-08T22:56:13+05:30</time><course>5.38</course><roll>3.45</roll><pitch>9.59</pitch><mode /></trkpt><trkpt lat="12.9919182" lon="80.230863"><ele>26.69</ele><time>2016-07-08T22:56:13+05:30</time><course>5.11</course><roll>3.41</roll><pitch>6.01</pitch><mode /></trkpt><trkpt lat="12.9919178" lon="80.2308617"><ele>26.76</ele><time>2016-07-08T22:56:13+05:30</time><course>5.09</course><roll>3.66</roll><pitch>3.87</pitch><mode /></trkpt><trkpt lat="12.9919197" lon="80.23086"><ele>26.85</ele><time>2016-07-08T22:56:13+05:30</time><course>5.44</course><roll>2.91</roll><pitch>3.24</pitch><mode /></trkpt><trkpt lat="12.9919199" lon="80.2308596"><ele>27.04</ele><time>2016-07-08T22:56:13+05:30</time><course>5.73</course><roll>2.09</roll><pitch>2.4</pitch><mode /></trkpt><trkpt lat="12.9919223" lon="80.2308579"><ele>27.96</ele><time>2016-07-08T22:56:14+05:30</time><course>5.59</course><roll>0.01</roll><pitch>-0.85</pitch><mode /></trkpt><trkpt lat="12.9919229" lon="80.2308584"><ele>27.8</ele><time>2016-07-08T22:56:14+05:30</time><course>5.06</course><roll>0.07</roll><pitch>-1.35</pitch><mode /></trkpt><trkpt lat="12.9919239" lon="80.2308582"><ele>27.86</ele><time>2016-07-08T22:56:14+05:30</time><course>5.1</course><roll>2.69</roll><pitch>-1.28</pitch><mode /></trkpt><trkpt lat="12.9919255" lon="80.2308583"><ele>28</ele><time>2016-07-08T22:56:15+05:30</time><course>4.79</course><roll>3.65</roll><pitch>-0.95</pitch><mode /></trkpt><trkpt lat="12.9919253" lon="80.2308607"><ele>27.82</ele><time>2016-07-08T22:56:15+05:30</time><course>4.52</course><roll>4.43</roll><pitch>-0.03</pitch><mode /></trkpt><trkpt lat="12.9919256" lon="80.2308614"><ele>27.76</ele><time>2016-07-08T22:56:15+05:30</time><course>4.53</course><roll>4.36</roll><pitch>-0.11</pitch><mode /></trkpt><trkpt lat="12.9919255" lon="80.2308622"><ele>27.65</ele><time>2016-07-08T22:56:15+05:30</time><course>4.68</course><roll>4</roll><pitch>-2.24</pitch><mode /></trkpt><trkpt lat="12.9919252" lon="80.2308636"><ele>27.38</ele><time>2016-07-08T22:56:16+05:30</time><course>5.1</course><roll>3.78</roll><pitch>-4.41</pitch><mode /></trkpt><trkpt lat="12.9919244" lon="80.2308639"><ele>27.09</ele><time>2016-07-08T22:56:16+05:30</time><course>5.27</course><roll>3.69</roll><pitch>-4.36</pitch><mode /></trkpt><trkpt lat="12.9919231" lon="80.2308649"><ele>26.73</ele><time>2016-07-08T22:56:16+05:30</time><course>5.61</course><roll>3.56</roll><pitch>-3.1</pitch><mode /></trkpt><trkpt lat="12.9919215" lon="80.2308657"><ele>26.47</ele><time>2016-07-08T22:56:16+05:30</time><course>6.32</course><roll>4.15</roll><pitch>-0.8</pitch><mode /></trkpt><trkpt lat="12.9919207" lon="80.2308654"><ele>26.3</ele><time>2016-07-08T22:56:17+05:30</time><course>7.88</course><roll>5.91</roll><pitch>2.66</pitch><mode /></trkpt><trkpt lat="12.9919203" lon="80.2308646"><ele>26.22</ele><time>2016-07-08T22:56:17+05:30</time><course>8.34</course><roll>5.8</roll><pitch>2.24</pitch><mode /></trkpt><trkpt lat="12.9919196" lon="80.2308643"><ele>26.08</ele><time>2016-07-08T22:56:17+05:30</time><course>8.88</course><roll>3.6</roll><pitch>2.81</pitch><mode /></trkpt><trkpt lat="12.9919199" lon="80.2308638"><ele>25.89</ele><time>2016-07-08T22:56:17+05:30</time><course>8.9</course><roll>1.36</roll><pitch>3.57</pitch><mode /></trkpt><trkpt lat="12.9919202" lon="80.2308625"><ele>25.77</ele><time>2016-07-08T22:56:17+05:30</time><course>8.66</course><roll>3.22</roll><pitch>5.44</pitch><mode /></trkpt><trkpt lat="12.9919205" lon="80.2308611"><ele>25.47</ele><time>2016-07-08T22:56:18+05:30</time><course>8.32</course><roll>3.94</roll><pitch>4.96</pitch><mode /></trkpt><trkpt lat="12.9919208" lon="80.2308599"><ele>25.12</ele><time>2016-07-08T22:56:18+05:30</time><course>7.88</course><roll>3.88</roll><pitch>4.56</pitch><mode /></trkpt><trkpt lat="12.99192" lon="80.23086"><ele>24.49</ele><time>2016-07-08T22:56:18+05:30</time><course>6.82</course><roll>3.45</roll><pitch>4.25</pitch><mode /></trkpt><trkpt lat="12.9919198" lon="80.2308598"><ele>24.14</ele><time>2016-07-08T22:56:18+05:30</time><course>3.65</course><roll>3.38</roll><pitch>3.63</pitch><mode /></trkpt><trkpt lat="12.9919191" lon="80.2308603"><ele>23.66</ele><time>2016-07-08T22:56:18+05:30</time><course>355.75</course><roll>3.3</roll><pitch>3</pitch><mode /></trkpt><trkpt lat="12.9919188" lon="80.2308605"><ele>23.35</ele><time>2016-07-08T22:56:19+05:30</time><course>351.45</course><roll>1.95</roll><pitch>0.69</pitch><mode /></trkpt><trkpt lat="12.9919186" lon="80.2308608"><ele>23.06</ele><time>2016-07-08T22:56:19+05:30</time><course>349.51</course><roll>2.7</roll><pitch>-1.87</pitch><mode /></trkpt><trkpt lat="12.9919179" lon="80.2308614"><ele>22.79</ele><time>2016-07-08T22:56:19+05:30</time><course>349.15</course><roll>3.08</roll><pitch>-0.93</pitch><mode /></trkpt><trkpt lat="12.9919169" lon="80.2308615"><ele>22.46</ele><time>2016-07-08T22:56:19+05:30</time><course>349.49</course><roll>3.43</roll><pitch>0.01</pitch><mode /></trkpt><trkpt lat="12.9919165" lon="80.2308617"><ele>22.18</ele><time>2016-07-08T22:56:19+05:30</time><course>349.99</course><roll>3.26</roll><pitch>0.66</pitch><mode /></trkpt><trkpt lat="12.9919164" lon="80.2308619"><ele>21.91</ele><time>2016-07-08T22:56:20+05:30</time><course>350.42</course><roll>3.86</roll><pitch>-0.71</pitch><mode /></trkpt><trkpt lat="12.9919166" lon="80.2308616"><ele>21.79</ele><time>2016-07-08T22:56:20+05:30</time><course>350.86</course><roll>3.9</roll><pitch>0.21</pitch><mode /></trkpt><trkpt lat="12.9919164" lon="80.2308611"><ele>21.6</ele><time>2016-07-08T22:56:20+05:30</time><course>351.24</course><roll>4.24</roll><pitch>-0.84</pitch><mode /></trkpt><trkpt lat="12.9919157" lon="80.2308607"><ele>21.39</ele><time>2016-07-08T22:56:20+05:30</time><course>351.33</course><roll>4.05</roll><pitch>0.11</pitch><mode /></trkpt><trkpt lat="12.9919146" lon="80.2308599"><ele>21.17</ele><time>2016-07-08T22:56:20+05:30</time><course>350.95</course><roll>1.05</roll><pitch>3.97</pitch><mode /></trkpt><trkpt lat="12.9919136" lon="80.23086"><ele>21</ele><time>2016-07-08T22:56:21+05:30</time><course>350.52</course><roll>0.99</roll><pitch>5.47</pitch><mode /></trkpt><trkpt lat="12.9919126" lon="80.2308594"><ele>20.95</ele><time>2016-07-08T22:56:21+05:30</time><course>350.12</course><roll>0.59</roll><pitch>5.44</pitch><mode /></trkpt><trkpt lat="12.9919121" lon="80.230859"><ele>21.06</ele><time>2016-07-08T22:56:21+05:30</time><course>349.91</course><roll>4.51</roll><pitch>1.48</pitch><mode /></trkpt><trkpt lat="12.9919112" lon="80.2308595"><ele>21.04</ele><time>2016-07-08T22:56:21+05:30</time><course>350.1</course><roll>5.63</roll><pitch>-0.88</pitch><mode /></trkpt><trkpt lat="12.9919106" lon="80.2308602"><ele>21.11</ele><time>2016-07-08T22:56:22+05:30</time><course>350.81</course><roll>4.94</roll><pitch>-1.95</pitch><mode /></trkpt><trkpt lat="12.9919098" lon="80.2308606"><ele>21.13</ele><time>2016-07-08T22:56:22+05:30</time><course>351.57</course><roll>4.93</roll><pitch>-1.35</pitch><mode /></trkpt><trkpt lat="12.9919085" lon="80.2308605"><ele>21.21</ele><time>2016-07-08T22:56:22+05:30</time><course>356.27</course><roll>-0.7</roll><pitch>0.66</pitch><mode /></trkpt><trkpt lat="12.9919082" lon="80.2308603"><ele>21.29</ele><time>2016-07-08T22:56:22+05:30</time><course>359.32</course><roll>-2.22</roll><pitch>1.51</pitch><mode /></trkpt><trkpt lat="12.9919087" lon="80.2308605"><ele>21.47</ele><time>2016-07-08T22:56:23+05:30</time><course>4.43</course><roll>3.15</roll><pitch>-0.09</pitch><mode /></trkpt><trkpt lat="12.9919101" lon="80.2308611"><ele>21.9</ele><time>2016-07-08T22:56:23+05:30</time><course>4.95</course><roll>2.39</roll><pitch>-0.05</pitch><mode /></trkpt><trkpt lat="12.9919077" lon="80.2308633"><ele>21.84</ele><time>2016-07-08T22:56:23+05:30</time><course>5.06</course><roll>1.46</roll><pitch>-0.03</pitch><mode /></trkpt><trkpt lat="12.9919074" lon="80.2308643"><ele>21.84</ele><time>2016-07-08T22:56:23+05:30</time><course>5.05</course><roll>1.84</roll><pitch>0.01</pitch><mode /></trkpt><trkpt lat="12.991907" lon="80.2308645"><ele>21.81</ele><time>2016-07-08T22:56:24+05:30</time><course>4.87</course><roll>0.87</roll><pitch>0.45</pitch><mode /></trkpt><trkpt lat="12.9919064" lon="80.2308654"><ele>21.84</ele><time>2016-07-08T22:56:24+05:30</time><course>4.34</course><roll>0.8</roll><pitch>1.27</pitch><mode /></trkpt><trkpt lat="12.9919058" lon="80.2308646"><ele>21.62</ele><time>2016-07-08T22:56:24+05:30</time><course>3.47</course><roll>0.07</roll><pitch>0.34</pitch><mode /></trkpt><trkpt lat="12.9919055" lon="80.2308647"><ele>21.58</ele><time>2016-07-08T22:56:24+05:30</time><course>2.68</course><roll>0.7</roll><pitch>-0.7</pitch><mode /></trkpt><trkpt lat="12.9919046" lon="80.2308662"><ele>21.4</ele><time>2016-07-08T22:56:25+05:30</time><course>2.39</course><roll>0.82</roll><pitch>-4.54</pitch><mode /></trkpt><trkpt lat="12.9919055" lon="80.2308652"><ele>21.41</ele><time>2016-07-08T22:56:25+05:30</time><course>1.85</course><roll>0.79</roll><pitch>-5.63</pitch><mode /></trkpt><trkpt lat="12.9919048" lon="80.2308662"><ele>21.37</ele><time>2016-07-08T22:56:25+05:30</time><course>1.65</course><roll>3.75</roll><pitch>-0.89</pitch><mode /></trkpt><trkpt lat="12.9919053" lon="80.2308663"><ele>21.34</ele><time>2016-07-08T22:56:25+05:30</time><course>2.05</course><roll>4.61</roll><pitch>2.31</pitch><mode /></trkpt><trkpt lat="12.9919044" lon="80.2308665"><ele>21.35</ele><time>2016-07-08T22:56:25+05:30</time><course>2.59</course><roll>5.51</roll><pitch>3.48</pitch><mode /></trkpt><trkpt lat="12.991904" lon="80.2308675"><ele>21.28</ele><time>2016-07-08T22:56:26+05:30</time><course>3.23</course><roll>4.4</roll><pitch>2.54</pitch><mode /></trkpt><trkpt lat="12.9919045" lon="80.2308679"><ele>21.27</ele><time>2016-07-08T22:56:26+05:30</time><course>7.38</course><roll>4.28</roll><pitch>2.69</pitch><mode /></trkpt><trkpt lat="12.9919035" lon="80.2308684"><ele>21.16</ele><time>2016-07-08T22:56:26+05:30</time><course>14</course><roll>3.61</roll><pitch>3.06</pitch><mode /></trkpt><trkpt lat="12.991903" lon="80.2308694"><ele>21.05</ele><time>2016-07-08T22:56:26+05:30</time><course>18.26</course><roll>4.04</roll><pitch>1.63</pitch><mode /></trkpt><trkpt lat="12.9919034" lon="80.2308697"><ele>20.98</ele><time>2016-07-08T22:56:26+05:30</time><course>22.52</course><roll>3.09</roll><pitch>2.31</pitch><mode /></trkpt><trkpt lat="12.9919033" lon="80.2308699"><ele>20.87</ele><time>2016-07-08T22:56:27+05:30</time><course>28.1</course><roll>2.91</roll><pitch>1.84</pitch><mode /></trkpt><trkpt lat="12.9919043" lon="80.2308692"><ele>20.86</ele><time>2016-07-08T22:56:27+05:30</time><course>34.41</course><roll>2.29</roll><pitch>2.12</pitch><mode /></trkpt><trkpt lat="12.9919065" lon="80.2308685"><ele>20.94</ele><time>2016-07-08T22:56:27+05:30</time><course>47.03</course><roll>2.34</roll><pitch>1.81</pitch><mode /></trkpt><trkpt lat="12.9919059" lon="80.2308707"><ele>20.82</ele><time>2016-07-08T22:56:28+05:30</time><course>65.4</course><roll>2.64</roll><pitch>0.3</pitch><mode /></trkpt><trkpt lat="12.9919077" lon="80.2308701"><ele>20.72</ele><time>2016-07-08T22:56:28+05:30</time><course>71.44</course><roll>4.44</roll><pitch>1.19</pitch><mode /></trkpt><trkpt lat="12.9919094" lon="80.2308686"><ele>20.22</ele><time>2016-07-08T22:56:28+05:30</time><course>76.6</course><roll>4.78</roll><pitch>1.18</pitch><mode /></trkpt><trkpt lat="12.9919111" lon="80.2308672"><ele>19.83</ele><time>2016-07-08T22:56:28+05:30</time><course>81.21</course><roll>4.07</roll><pitch>2.53</pitch><mode /></trkpt><trkpt lat="12.9919105" lon="80.2308675"><ele>19.32</ele><time>2016-07-08T22:56:29+05:30</time><course>85.79</course><roll>3.82</roll><pitch>2.81</pitch><mode /></trkpt><trkpt lat="12.9919112" lon="80.2308672"><ele>19.12</ele><time>2016-07-08T22:56:29+05:30</time><course>91.41</course><roll>3.62</roll><pitch>2.25</pitch><mode /></trkpt><trkpt lat="12.9919121" lon="80.2308674"><ele>19.09</ele><time>2016-07-08T22:56:29+05:30</time><course>101.07</course><roll>2.93</roll><pitch>2.06</pitch><mode /></trkpt><trkpt lat="12.991912" lon="80.2308686"><ele>18.95</ele><time>2016-07-08T22:56:29+05:30</time><course>113.52</course><roll>2.8</roll><pitch>2.16</pitch><mode /></trkpt><trkpt lat="12.9919125" lon="80.2308685"><ele>18.67</ele><time>2016-07-08T22:56:29+05:30</time><course>127.46</course><roll>2.61</roll><pitch>3.44</pitch><mode /></trkpt><trkpt lat="12.9919133" lon="80.2308683"><ele>18.54</ele><time>2016-07-08T22:56:30+05:30</time><course>141.57</course><roll>3.37</roll><pitch>5.84</pitch><mode /></trkpt><trkpt lat="12.991914" lon="80.2308693"><ele>18.75</ele><time>2016-07-08T22:56:30+05:30</time><course>154.75</course><roll>5.55</roll><pitch>14.38</pitch><mode /></trkpt><trkpt lat="12.9919122" lon="80.2308703"><ele>18.55</ele><time>2016-07-08T22:56:30+05:30</time><course>164.53</course><roll>1.04</roll><pitch>12.71</pitch><mode /></trkpt><trkpt lat="12.9919105" lon="80.2308714"><ele>18.32</ele><time>2016-07-08T22:56:30+05:30</time><course>168.63</course><roll>-0.8</roll><pitch>18.66</pitch><mode /></trkpt><trkpt lat="12.9919066" lon="80.2308747"><ele>17.85</ele><time>2016-07-08T22:56:30+05:30</time><course>170.12</course><roll>-3.46</roll><pitch>16.84</pitch><mode /></trkpt><trkpt lat="12.9919031" lon="80.2308772"><ele>17.55</ele><time>2016-07-08T22:56:31+05:30</time><course>170.15</course><roll>-6.38</roll><pitch>15.87</pitch><mode /></trkpt><trkpt lat="12.9919018" lon="80.2308779"><ele>17.42</ele><time>2016-07-08T22:56:31+05:30</time><course>170.35</course><roll>-6.04</roll><pitch>12.46</pitch><mode /></trkpt><trkpt lat="12.9919007" lon="80.2308787"><ele>17.46</ele><time>2016-07-08T22:56:31+05:30</time><course>170.26</course><roll>4.59</roll><pitch>9.85</pitch><mode /></trkpt><trkpt lat="12.9918984" lon="80.2308802"><ele>17.78</ele><time>2016-07-08T22:56:31+05:30</time><course>170.71</course><roll>4.26</roll><pitch>4.95</pitch><mode /></trkpt><trkpt lat="12.9918958" lon="80.2308822"><ele>18.1</ele><time>2016-07-08T22:56:31+05:30</time><course>171.96</course><roll>4.35</roll><pitch>-5.85</pitch><mode /></trkpt><trkpt lat="12.9918938" lon="80.2308835"><ele>18.07</ele><time>2016-07-08T22:56:32+05:30</time><course>174.01</course><roll>3.38</roll><pitch>-11.2</pitch><mode /></trkpt><trkpt lat="12.9918916" lon="80.2308846"><ele>17.97</ele><time>2016-07-08T22:56:32+05:30</time><course>176.46</course><roll>3.62</roll><pitch>-12.15</pitch><mode /></trkpt><trkpt lat="12.9918889" lon="80.2308863"><ele>17.88</ele><time>2016-07-08T22:56:32+05:30</time><course>179.03</course><roll>3.48</roll><pitch>-10.32</pitch><mode /></trkpt><trkpt lat="12.9918864" lon="80.2308871"><ele>17.87</ele><time>2016-07-08T22:56:32+05:30</time><course>182</course><roll>2.11</roll><pitch>-6.1</pitch><mode /></trkpt><trkpt lat="12.9918865" lon="80.2308873"><ele>17.75</ele><time>2016-07-08T22:56:32+05:30</time><course>183.97</course><roll>-8.43</roll><pitch>9.07</pitch><mode /></trkpt><trkpt lat="12.9918855" lon="80.2308874"><ele>17.65</ele><time>2016-07-08T22:56:33+05:30</time><course>187.85</course><roll>-17.72</roll><pitch>11.68</pitch><mode /></trkpt><trkpt lat="12.991886" lon="80.2308866"><ele>17.71</ele><time>2016-07-08T22:56:33+05:30</time><course>192.51</course><roll>-4.28</roll><pitch>10.8</pitch><mode /></trkpt><trkpt lat="12.9918851" lon="80.230885"><ele>17.43</ele><time>2016-07-08T22:56:33+05:30</time><course>200.11</course><roll>5.09</roll><pitch>10.83</pitch><mode /></trkpt><trkpt lat="12.9918865" lon="80.2308822"><ele>17.62</ele><time>2016-07-08T22:56:33+05:30</time><course>203.46</course><roll>2.4</roll><pitch>9.41</pitch><mode /></trkpt><trkpt lat="12.9918877" lon="80.230879"><ele>17.42</ele><time>2016-07-08T22:56:34+05:30</time><course>207.39</course><roll>1.28</roll><pitch>-0.08</pitch><mode /></trkpt><trkpt lat="12.9918891" lon="80.2308772"><ele>17.17</ele><time>2016-07-08T22:56:34+05:30</time><course>211.18</course><roll>3.19</roll><pitch>-13.73</pitch><mode /></trkpt><trkpt lat="12.9918897" lon="80.2308761"><ele>17.36</ele><time>2016-07-08T22:56:34+05:30</time><course>214.66</course><roll>4.64</roll><pitch>-14.75</pitch><mode /></trkpt><trkpt lat="12.9918892" lon="80.2308743"><ele>17.39</ele><time>2016-07-08T22:56:34+05:30</time><course>218.38</course><roll>4.61</roll><pitch>-9.04</pitch><mode /></trkpt><trkpt lat="12.9918857" lon="80.2308748"><ele>17.02</ele><time>2016-07-08T22:56:34+05:30</time><course>221.79</course><roll>5.82</roll><pitch>-1.43</pitch><mode /></trkpt><trkpt lat="12.9918831" lon="80.2308753"><ele>16.77</ele><time>2016-07-08T22:56:35+05:30</time><course>225.21</course><roll>9.05</roll><pitch>5.18</pitch><mode /></trkpt><trkpt lat="12.9918807" lon="80.2308764"><ele>16.37</ele><time>2016-07-08T22:56:35+05:30</time><course>228.06</course><roll>7.86</roll><pitch>3.39</pitch><mode /></trkpt><trkpt lat="12.9918792" lon="80.230877"><ele>16.21</ele><time>2016-07-08T22:56:35+05:30</time><course>231.61</course><roll>16.64</roll><pitch>6.85</pitch><mode /></trkpt><trkpt lat="12.9918802" lon="80.2308762"><ele>16.15</ele><time>2016-07-08T22:56:35+05:30</time><course>235.73</course><roll>17.86</roll><pitch>11.24</pitch><mode /></trkpt><trkpt lat="12.9918782" lon="80.2308765"><ele>16.15</ele><time>2016-07-08T22:56:35+05:30</time><course>239.95</course><roll>5.57</roll><pitch>10.73</pitch><mode /></trkpt><trkpt lat="12.9918749" lon="80.2308776"><ele>15.99</ele><time>2016-07-08T22:56:36+05:30</time><course>246.89</course><roll>1.08</roll><pitch>-0.89</pitch><mode /></trkpt><trkpt lat="12.9918707" lon="80.2308787"><ele>15.68</ele><time>2016-07-08T22:56:36+05:30</time><course>255.04</course><roll>0.76</roll><pitch>-1.5</pitch><mode /></trkpt><trkpt lat="12.9918689" lon="80.2308788"><ele>15.55</ele><time>2016-07-08T22:56:36+05:30</time><course>261.2</course><roll>0.57</roll><pitch>-1.16</pitch><mode /></trkpt><trkpt lat="12.9918652" lon="80.2308798"><ele>15.23</ele><time>2016-07-08T22:56:36+05:30</time><course>264.92</course><roll>0.86</roll><pitch>-0.93</pitch><mode /></trkpt><trkpt lat="12.991869" lon="80.2308774"><ele>14.73</ele><time>2016-07-08T22:56:37+05:30</time><course>274.03</course><roll>-0.06</roll><pitch>-0.37</pitch><mode /></trkpt><trkpt lat="12.9918731" lon="80.2308753"><ele>14.65</ele><time>2016-07-08T22:56:37+05:30</time><course>274.06</course><roll>0.15</roll><pitch>-0.23</pitch><mode /></trkpt><trkpt lat="12.9918762" lon="80.2308739"><ele>14.62</ele><time>2016-07-08T22:56:37+05:30</time><course>274.09</course><roll>-0.11</roll><pitch>-0.14</pitch><mode /></trkpt><trkpt lat="12.9918787" lon="80.2308727"><ele>14.62</ele><time>2016-07-08T22:56:37+05:30</time><course>274.1</course><roll>-0.16</roll><pitch>-0.06</pitch><mode /></trkpt><trkpt lat="12.9918788" lon="80.230873"><ele>14.5</ele><time>2016-07-08T22:56:38+05:30</time><course>274.15</course><roll>0.04</roll><pitch>-0.1</pitch><mode /></trkpt><trkpt lat="12.9918792" lon="80.2308729"><ele>14.42</ele><time>2016-07-08T22:56:38+05:30</time><course>274.17</course><roll>0.18</roll><pitch>-0.15</pitch><mode /></trkpt><trkpt lat="12.9918793" lon="80.230873"><ele>14.34</ele><time>2016-07-08T22:56:38+05:30</time><course>274.19</course><roll>0.28</roll><pitch>-0.16</pitch><mode /></trkpt><trkpt lat="12.9918788" lon="80.2308732"><ele>14.28</ele><time>2016-07-08T22:56:38+05:30</time><course>274.22</course><roll>0.39</roll><pitch>-0.18</pitch><mode /></trkpt><trkpt lat="12.9918778" lon="80.2308728"><ele>14.02</ele><time>2016-07-08T22:56:39+05:30</time><course>274.26</course><roll>0.62</roll><pitch>-0.2</pitch><mode /></trkpt><trkpt lat="12.9918764" lon="80.2308739"><ele>14.03</ele><time>2016-07-08T22:56:39+05:30</time><course>274.3</course><roll>0.74</roll><pitch>-0.14</pitch><mode /></trkpt><trkpt lat="12.9918757" lon="80.2308743"><ele>13.9</ele><time>2016-07-08T22:56:39+05:30</time><course>274.32</course><roll>0.86</roll><pitch>-0.26</pitch><mode /></trkpt><trkpt lat="12.9918759" lon="80.2308748"><ele>13.8</ele><time>2016-07-08T22:56:39+05:30</time><course>274.34</course><roll>0.92</roll><pitch>-0.28</pitch><mode /></trkpt><trkpt lat="12.9918757" lon="80.2308757"><ele>13.67</ele><time>2016-07-08T22:56:40+05:30</time><course>274.38</course><roll>0.89</roll><pitch>-0.24</pitch><mode /></trkpt><trkpt lat="12.9918749" lon="80.2308765"><ele>13.62</ele><time>2016-07-08T22:56:40+05:30</time><course>274.39</course><roll>0.96</roll><pitch>-0.26</pitch><mode /></trkpt><trkpt lat="12.9918744" lon="80.230877"><ele>13.59</ele><time>2016-07-08T22:56:40+05:30</time><course>274.42</course><roll>1.04</roll><pitch>-0.28</pitch><mode /></trkpt><trkpt lat="12.9918741" lon="80.2308775"><ele>13.54</ele><time>2016-07-08T22:56:40+05:30</time><course>274.44</course><roll>1.08</roll><pitch>-0.26</pitch><mode /></trkpt><trkpt lat="12.991874" lon="80.2308778"><ele>13.49</ele><time>2016-07-08T22:56:41+05:30</time><course>274.46</course><roll>1.1</roll><pitch>-0.24</pitch><mode /></trkpt><trkpt lat="12.9918742" lon="80.2308781"><ele>13.31</ele><time>2016-07-08T22:56:41+05:30</time><course>274.52</course><roll>1.05</roll><pitch>-0.1</pitch><mode /></trkpt><trkpt lat="12.9918739" lon="80.2308782"><ele>13.24</ele><time>2016-07-08T22:56:41+05:30</time><course>274.54</course><roll>1.1</roll><pitch>-0.08</pitch><mode /></trkpt><trkpt lat="12.9918734" lon="80.2308786"><ele>13.12</ele><time>2016-07-08T22:56:42+05:30</time><course>274.55</course><roll>1.14</roll><pitch>-0.07</pitch><mode /></trkpt><trkpt lat="12.9918728" lon="80.2308789"><ele>13.04</ele><time>2016-07-08T22:56:42+05:30</time><course>274.57</course><roll>1.19</roll><pitch>-0.08</pitch><mode /></trkpt><trkpt lat="12.9918722" lon="80.2308792"><ele>12.96</ele><time>2016-07-08T22:56:42+05:30</time><course>274.59</course><roll>1.23</roll><pitch>-0.09</pitch><mode /></trkpt><trkpt lat="12.9918712" lon="80.2308795"><ele>12.87</ele><time>2016-07-08T22:56:42+05:30</time><course>274.61</course><roll>1.28</roll><pitch>-0.08</pitch><mode /></trkpt><trkpt lat="12.9918695" lon="80.23088"><ele>12.77</ele><time>2016-07-08T22:56:43+05:30</time><course>274.64</course><roll>1.39</roll><pitch>-0.05</pitch><mode /></trkpt><trkpt lat="12.9918684" lon="80.2308804"><ele>12.72</ele><time>2016-07-08T22:56:43+05:30</time><course>274.66</course><roll>1.47</roll><pitch>-0.06</pitch><mode /></trkpt><trkpt lat="12.9918682" lon="80.2308808"><ele>12.8</ele><time>2016-07-08T22:56:43+05:30</time><course>274.68</course><roll>1.66</roll><pitch>-0.02</pitch><mode /></trkpt><trkpt lat="12.9918677" lon="80.2308812"><ele>12.82</ele><time>2016-07-08T22:56:43+05:30</time><course>274.68</course><roll>1.65</roll><pitch>-0.04</pitch><mode /></trkpt><trkpt lat="12.9918665" lon="80.2308814"><ele>12.67</ele><time>2016-07-08T22:56:43+05:30</time><course>274.7</course><roll>1.65</roll><pitch>-0.01</pitch><mode /></trkpt><trkpt lat="12.9918659" lon="80.2308815"><ele>12.7</ele><time>2016-07-08T22:56:44+05:30</time><course>274.7</course><roll>1.53</roll><pitch>-0.01</pitch><mode /></trkpt><trkpt lat="12.9918646" lon="80.2308821"><ele>12.78</ele><time>2016-07-08T22:56:44+05:30</time><course>274.7</course><roll>1.46</roll><pitch>0.03</pitch><mode /></trkpt><trkpt lat="12.9918634" lon="80.2308826"><ele>12.75</ele><time>2016-07-08T22:56:44+05:30</time><course>274.7</course><roll>1.47</roll><pitch>0.03</pitch><mode /></trkpt><trkpt lat="12.991862" lon="80.2308834"><ele>12.7</ele><time>2016-07-08T22:56:44+05:30</time><course>274.72</course><roll>1.52</roll><pitch>0.05</pitch><mode /></trkpt><trkpt lat="12.9918609" lon="80.2308841"><ele>12.75</ele><time>2016-07-08T22:56:44+05:30</time><course>274.72</course><roll>1.5</roll><pitch>0.03</pitch><mode /></trkpt><trkpt lat="12.9918595" lon="80.2308845"><ele>12.72</ele><time>2016-07-08T22:56:45+05:30</time><course>274.75</course><roll>1.57</roll><pitch>0.04</pitch><mode /></trkpt><trkpt lat="12.9918581" lon="80.230885"><ele>12.64</ele><time>2016-07-08T22:56:45+05:30</time><course>274.76</course><roll>1.61</roll><pitch>0.08</pitch><mode /></trkpt><trkpt lat="12.9918568" lon="80.2308856"><ele>12.6</ele><time>2016-07-08T22:56:45+05:30</time><course>274.76</course><roll>1.59</roll><pitch>0.09</pitch><mode /></trkpt><trkpt lat="12.9918559" lon="80.2308862"><ele>12.64</ele><time>2016-07-08T22:56:45+05:30</time><course>274.77</course><roll>1.62</roll><pitch>0.09</pitch><mode /></trkpt><trkpt lat="12.9918551" lon="80.230887"><ele>12.68</ele><time>2016-07-08T22:56:45+05:30</time><course>274.79</course><roll>1.63</roll><pitch>0.08</pitch><mode /></trkpt><trkpt lat="12.9918547" lon="80.2308874"><ele>12.72</ele><time>2016-07-08T22:56:46+05:30</time><course>274.8</course><roll>1.64</roll><pitch>0.06</pitch><mode /></trkpt><trkpt lat="12.9918543" lon="80.2308882"><ele>12.85</ele><time>2016-07-08T22:56:46+05:30</time><course>274.81</course><roll>1.63</roll><pitch>0.07</pitch><mode /></trkpt><trkpt lat="12.9918525" lon="80.2308886"><ele>12.76</ele><time>2016-07-08T22:56:46+05:30</time><course>274.82</course><roll>1.65</roll><pitch>0.05</pitch><mode /></trkpt><trkpt lat="12.9918511" lon="80.2308896"><ele>12.59</ele><time>2016-07-08T22:56:46+05:30</time><course>274.83</course><roll>1.77</roll><pitch>0.09</pitch><mode /></trkpt><trkpt lat="12.99185" lon="80.2308902"><ele>12.59</ele><time>2016-07-08T22:56:46+05:30</time><course>274.84</course><roll>1.79</roll><pitch>0.04</pitch><mode /></trkpt><trkpt lat="12.9918481" lon="80.2308905"><ele>12.62</ele><time>2016-07-08T22:56:47+05:30</time><course>274.87</course><roll>1.82</roll><pitch>0.12</pitch><mode /></trkpt><trkpt lat="12.9918477" lon="80.2308906"><ele>12.65</ele><time>2016-07-08T22:56:47+05:30</time><course>274.88</course><roll>1.85</roll><pitch>0.15</pitch><mode /></trkpt><trkpt lat="12.9918474" lon="80.2308908"><ele>12.7</ele><time>2016-07-08T22:56:47+05:30</time><course>274.88</course><roll>1.85</roll><pitch>0.16</pitch><mode /></trkpt><trkpt lat="12.9918461" lon="80.2308906"><ele>12.74</ele><time>2016-07-08T22:56:48+05:30</time><course>274.89</course><roll>1.89</roll><pitch>0.2</pitch><mode /></trkpt><trkpt lat="12.9918456" lon="80.2308909"><ele>12.72</ele><time>2016-07-08T22:56:48+05:30</time><course>274.9</course><roll>1.93</roll><pitch>0.29</pitch><mode /></trkpt><trkpt lat="12.9918452" lon="80.2308912"><ele>12.7</ele><time>2016-07-08T22:56:48+05:30</time><course>274.9</course><roll>1.92</roll><pitch>0.29</pitch><mode /></trkpt><trkpt lat="12.9918448" lon="80.2308913"><ele>12.71</ele><time>2016-07-08T22:56:48+05:30</time><course>274.91</course><roll>1.9</roll><pitch>0.3</pitch><mode /></trkpt><trkpt lat="12.9918437" lon="80.2308914"><ele>12.67</ele><time>2016-07-08T22:56:48+05:30</time><course>274.91</course><roll>1.91</roll><pitch>0.32</pitch><mode /></trkpt><trkpt lat="12.9918435" lon="80.2308913"><ele>12.71</ele><time>2016-07-08T22:56:49+05:30</time><course>274.92</course><roll>1.97</roll><pitch>0.33</pitch><mode /></trkpt><trkpt lat="12.9918429" lon="80.2308918"><ele>12.68</ele><time>2016-07-08T22:56:49+05:30</time><course>274.92</course><roll>1.98</roll><pitch>0.34</pitch><mode /></trkpt><trkpt lat="12.9918445" lon="80.2308907"><ele>12.72</ele><time>2016-07-08T22:56:49+05:30</time><course>274.93</course><roll>2</roll><pitch>0.32</pitch><mode /></trkpt><trkpt lat="12.9918457" lon="80.23089"><ele>12.89</ele><time>2016-07-08T22:56:49+05:30</time><course>274.93</course><roll>1.88</roll><pitch>0.43</pitch><mode /></trkpt><trkpt lat="12.9918455" lon="80.2308897"><ele>13.08</ele><time>2016-07-08T22:56:49+05:30</time><course>274.93</course><roll>1.84</roll><pitch>0.49</pitch><mode /></trkpt><trkpt lat="12.9918448" lon="80.2308903"><ele>13.19</ele><time>2016-07-08T22:56:50+05:30</time><course>274.94</course><roll>1.97</roll><pitch>0.45</pitch><mode /></trkpt><trkpt lat="12.9918443" lon="80.2308911"><ele>13.13</ele><time>2016-07-08T22:56:50+05:30</time><course>274.94</course><roll>2.02</roll><pitch>0.42</pitch><mode /></trkpt><trkpt lat="12.9918442" lon="80.230891"><ele>13.22</ele><time>2016-07-08T22:56:50+05:30</time><course>274.94</course><roll>2.04</roll><pitch>0.35</pitch><mode /></trkpt><trkpt lat="12.9918441" lon="80.2308909"><ele>13.19</ele><time>2016-07-08T22:56:50+05:30</time><course>274.92</course><roll>2.11</roll><pitch>0.41</pitch><mode /></trkpt></trkseg></trk><wpt lat="12.9919126" lon="80.2308634"><name>0</name></wpt><wpt lat="12.9919087" lon="80.2308623"><name>1</name></wpt><wpt lat="12.9919057" lon="80.230861"><name>2</name></wpt><wpt lat="12.9919036" lon="80.2308595"><name>3</name></wpt><wpt lat="12.9918997" lon="80.2308581"><name>4</name></wpt><wpt lat="12.9918971" lon="80.2308573"><name>5</name></wpt><wpt lat="12.9918954" lon="80.2308563"><name>6</name></wpt><wpt lat="12.991894" lon="80.2308552"><name>7</name></wpt><wpt lat="12.9918926" lon="80.2308546"><name>8</name></wpt><wpt lat="12.9918909" lon="80.2308539"><name>9</name></wpt><wpt lat="12.9918901" lon="80.2308533"><name>10</name></wpt><wpt lat="12.9918894" lon="80.2308528"><name>11</name></wpt><wpt lat="12.9918895" lon="80.2308526"><name>12</name></wpt><wpt lat="12.9918888" lon="80.2308522"><name>13</name></wpt><wpt lat="12.9918882" lon="80.2308521"><name>14</name></wpt><wpt lat="12.991888" lon="80.2308524"><name>15</name></wpt><wpt lat="12.9918878" lon="80.2308525"><name>16</name></wpt><wpt lat="12.9918879" lon="80.2308526"><name>17</name></wpt><wpt lat="12.9918877" lon="80.2308528"><name>18</name></wpt><wpt lat="12.9918871" lon="80.2308527"><name>19</name></wpt><wpt lat="12.9918862" lon="80.2308525"><name>20</name></wpt><wpt lat="12.9918857" lon="80.2308524"><name>21</name></wpt><wpt lat="12.9918853" lon="80.2308526"><name>22</name></wpt><wpt lat="12.991885" lon="80.2308525"><name>23</name></wpt><wpt lat="12.9918854" lon="80.2308524"><name>24</name></wpt><wpt lat="12.9918857" lon="80.2308521"><name>25</name></wpt><wpt lat="12.9918867" lon="80.230852"><name>26</name></wpt><wpt lat="12.9918875" lon="80.2308517"><name>27</name></wpt><wpt lat="12.9918882" lon="80.2308515"><name>28</name></wpt><wpt lat="12.9918897" lon="80.2308513"><name>29</name></wpt><wpt lat="12.9918925" lon="80.2308508"><name>30</name></wpt><wpt lat="12.9918947" lon="80.2308497"><name>31</name></wpt><wpt lat="12.9918969" lon="80.2308486"><name>32</name></wpt><wpt lat="12.991899" lon="80.2308476"><name>33</name></wpt><wpt lat="12.9918979" lon="80.2308463"><name>34</name></wpt><wpt lat="12.9918933" lon="80.2308466"><name>35</name></wpt><wpt lat="12.9918877" lon="80.2308467"><name>36</name></wpt><wpt lat="12.9918826" lon="80.2308478"><name>37</name></wpt><wpt lat="12.9918776" lon="80.230849"><name>38</name></wpt><wpt lat="12.9918727" lon="80.2308499"><name>39</name></wpt><wpt lat="12.9918677" lon="80.2308506"><name>40</name></wpt><wpt lat="12.991863" lon="80.2308498"><name>41</name></wpt><wpt lat="12.9918595" lon="80.2308501"><name>42</name></wpt><wpt lat="12.9918546" lon="80.2308503"><name>43</name></wpt><wpt lat="12.9918523" lon="80.2308515"><name>44</name></wpt><wpt lat="12.9918511" lon="80.2308521"><name>45</name></wpt><wpt lat="12.9918499" lon="80.2308534"><name>46</name></wpt><wpt lat="12.9918501" lon="80.2308537"><name>47</name></wpt><wpt lat="12.9918506" lon="80.2308556"><name>48</name></wpt><wpt lat="12.9918502" lon="80.2308545"><name>49</name></wpt><wpt lat="12.9918482" lon="80.2308533"><name>50</name></wpt><wpt lat="12.9918464" lon="80.230851"><name>51</name></wpt><wpt lat="12.9918459" lon="80.2308503"><name>52</name></wpt><wpt lat="12.9918448" lon="80.2308506"><name>53</name></wpt><wpt lat="12.9918435" lon="80.2308509"><name>54</name></wpt><wpt lat="12.9918419" lon="80.2308511"><name>55</name></wpt><wpt lat="12.9918422" lon="80.2308508"><name>56</name></wpt><wpt lat="12.9918423" lon="80.2308503"><name>57</name></wpt><wpt lat="12.9918411" lon="80.2308496"><name>58</name></wpt><wpt lat="12.9918394" lon="80.2308487"><name>59</name></wpt><wpt lat="12.9918398" lon="80.2308496"><name>60</name></wpt><wpt lat="12.9918406" lon="80.23085"><name>61</name></wpt><wpt lat="12.9918414" lon="80.2308517"><name>62</name></wpt><wpt lat="12.991842" lon="80.2308531"><name>63</name></wpt><wpt lat="12.9918409" lon="80.2308546"><name>64</name></wpt><wpt lat="12.991841" lon="80.230856"><name>65</name></wpt><wpt lat="12.9918416" lon="80.230859"><name>66</name></wpt><wpt lat="12.9918413" lon="80.23086"><name>67</name></wpt><wpt lat="12.9918417" lon="80.2308607"><name>68</name></wpt><wpt lat="12.9918418" lon="80.2308617"><name>69</name></wpt><wpt lat="12.991842" lon="80.2308632"><name>70</name></wpt><wpt lat="12.9918419" lon="80.2308642"><name>71</name></wpt><wpt lat="12.9918456" lon="80.230864"><name>72</name></wpt><wpt lat="12.9918498" lon="80.2308647"><name>73</name></wpt><wpt lat="12.9918518" lon="80.2308645"><name>74</name></wpt><wpt lat="12.9918515" lon="80.2308657"><name>75</name></wpt><wpt lat="12.9918519" lon="80.2308662"><name>76</name></wpt><wpt lat="12.9918537" lon="80.2308664"><name>77</name></wpt><wpt lat="12.9918553" lon="80.2308653"><name>78</name></wpt><wpt lat="12.9918554" lon="80.2308667"><name>79</name></wpt><wpt lat="12.9918566" lon="80.2308663"><name>80</name></wpt><wpt lat="12.9918579" lon="80.230866"><name>81</name></wpt><wpt lat="12.9918606" lon="80.2308663"><name>82</name></wpt><wpt lat="12.9918656" lon="80.2308671"><name>83</name></wpt><wpt lat="12.991868" lon="80.2308655"><name>84</name></wpt><wpt lat="12.9918711" lon="80.2308651"><name>85</name></wpt><wpt lat="12.9918739" lon="80.2308643"><name>86</name></wpt><wpt lat="12.9918762" lon="80.2308635"><name>87</name></wpt><wpt lat="12.9918789" lon="80.2308622"><name>88</name></wpt><wpt lat="12.9918812" lon="80.2308614"><name>89</name></wpt><wpt lat="12.9918825" lon="80.2308609"><name>90</name></wpt><wpt lat="12.991884" lon="80.2308595"><name>91</name></wpt><wpt lat="12.9918849" lon="80.2308598"><name>92</name></wpt><wpt lat="12.9918856" lon="80.2308585"><name>93</name></wpt><wpt lat="12.9918867" lon="80.2308579"><name>94</name></wpt><wpt lat="12.9918873" lon="80.2308585"><name>95</name></wpt><wpt lat="12.9918879" lon="80.2308572"><name>96</name></wpt><wpt lat="12.9918882" lon="80.2308568"><name>97</name></wpt><wpt lat="12.991888" lon="80.2308564"><name>98</name></wpt><wpt lat="12.9918879" lon="80.2308561"><name>99</name></wpt><wpt lat="12.9918902" lon="80.230856"><name>100</name></wpt><wpt lat="12.9918909" lon="80.2308556"><name>101</name></wpt><wpt lat="12.9918907" lon="80.2308552"><name>102</name></wpt><wpt lat="12.9918916" lon="80.2308539"><name>103</name></wpt><wpt lat="12.9918909" lon="80.230853"><name>104</name></wpt><wpt lat="12.9918911" lon="80.2308522"><name>105</name></wpt><wpt lat="12.9918917" lon="80.2308511"><name>106</name></wpt><wpt lat="12.9918916" lon="80.2308503"><name>107</name></wpt><wpt lat="12.9918902" lon="80.2308502"><name>108</name></wpt><wpt lat="12.9918904" lon="80.2308498"><name>109</name></wpt><wpt lat="12.9918894" lon="80.23085"><name>110</name></wpt><wpt lat="12.9918891" lon="80.2308492"><name>111</name></wpt><wpt lat="12.991889" lon="80.2308485"><name>112</name></wpt><wpt lat="12.9918883" lon="80.2308482"><name>113</name></wpt><wpt lat="12.9918877" lon="80.2308479"><name>114</name></wpt><wpt lat="12.9918881" lon="80.2308474"><name>115</name></wpt><wpt lat="12.9918875" lon="80.2308478"><name>116</name></wpt><wpt lat="12.991888" lon="80.2308471"><name>117</name></wpt><wpt lat="12.9918877" lon="80.2308477"><name>118</name></wpt><wpt lat="12.9918874" lon="80.2308491"><name>119</name></wpt><wpt lat="12.991887" lon="80.2308497"><name>120</name></wpt><wpt lat="12.991888" lon="80.23085"><name>121</name></wpt><wpt lat="12.9918886" lon="80.2308502"><name>122</name></wpt><wpt lat="12.9918893" lon="80.2308506"><name>123</name></wpt><wpt lat="12.991888" lon="80.2308514"><name>124</name></wpt><wpt lat="12.9918887" lon="80.2308512"><name>125</name></wpt><wpt lat="12.9918888" lon="80.2308517"><name>126</name></wpt><wpt lat="12.9918884" lon="80.2308511"><name>127</name></wpt><wpt lat="12.9918891" lon="80.2308517"><name>128</name></wpt><wpt lat="12.9918895" lon="80.2308523"><name>129</name></wpt><wpt lat="12.9918892" lon="80.2308529"><name>130</name></wpt><wpt lat="12.9918905" lon="80.2308545"><name>131</name></wpt><wpt lat="12.9918925" lon="80.2308567"><name>132</name></wpt><wpt lat="12.9918933" lon="80.2308591"><name>133</name></wpt><wpt lat="12.9918945" lon="80.2308614"><name>134</name></wpt><wpt lat="12.9918976" lon="80.2308616"><name>135</name></wpt><wpt lat="12.9919027" lon="80.2308613"><name>136</name></wpt><wpt lat="12.991907" lon="80.2308604"><name>137</name></wpt><wpt lat="12.9919072" lon="80.2308585"><name>138</name></wpt><wpt lat="12.9919076" lon="80.2308568"><name>139</name></wpt><wpt lat="12.991906" lon="80.2308543"><name>140</name></wpt><wpt lat="12.9919063" lon="80.230855"><name>141</name></wpt><wpt lat="12.9919103" lon="80.2308526"><name>142</name></wpt><wpt lat="12.9919115" lon="80.2308513"><name>143</name></wpt><wpt lat="12.9919141" lon="80.23085"><name>144</name></wpt><wpt lat="12.9919154" lon="80.2308482"><name>145</name></wpt><wpt lat="12.9919157" lon="80.2308464"><name>146</name></wpt><wpt lat="12.9919158" lon="80.2308448"><name>147</name></wpt><wpt lat="12.9919156" lon="80.2308444"><name>148</name></wpt><wpt lat="12.9919153" lon="80.2308442"><name>149</name></wpt><wpt lat="12.9919159" lon="80.2308443"><name>150</name></wpt><wpt lat="12.9919169" lon="80.2308458"><name>151</name></wpt><wpt lat="12.9919184" lon="80.2308462"><name>152</name></wpt><wpt lat="12.9919197" lon="80.230846"><name>153</name></wpt><wpt lat="12.9919209" lon="80.2308459"><name>154</name></wpt><wpt lat="12.9919205" lon="80.2308457"><name>155</name></wpt><wpt lat="12.9919203" lon="80.2308453"><name>156</name></wpt><wpt lat="12.9919209" lon="80.2308441"><name>157</name></wpt><wpt lat="12.9919208" lon="80.2308437"><name>158</name></wpt><wpt lat="12.9919205" lon="80.2308439"><name>159</name></wpt><wpt lat="12.9919208" lon="80.2308438"><name>160</name></wpt><wpt lat="12.9919204" lon="80.2308442"><name>161</name></wpt><wpt lat="12.9919215" lon="80.2308436"><name>162</name></wpt><wpt lat="12.9919224" lon="80.2308433"><name>163</name></wpt><wpt lat="12.9919232" lon="80.2308437"><name>164</name></wpt><wpt lat="12.9919245" lon="80.2308436"><name>165</name></wpt><wpt lat="12.9919259" lon="80.2308444"><name>166</name></wpt><wpt lat="12.9919252" lon="80.2308453"><name>167</name></wpt><wpt lat="12.9919246" lon="80.2308463"><name>168</name></wpt><wpt lat="12.991926" lon="80.2308447"><name>169</name></wpt><wpt lat="12.9919267" lon="80.2308436"><name>170</name></wpt><wpt lat="12.9919271" lon="80.2308424"><name>171</name></wpt><wpt lat="12.9919255" lon="80.230842"><name>172</name></wpt><wpt lat="12.9919267" lon="80.2308405"><name>173</name></wpt><wpt lat="12.9919277" lon="80.2308429"><name>174</name></wpt><wpt lat="12.9919262" lon="80.2308469"><name>175</name></wpt><wpt lat="12.991922" lon="80.230851"><name>176</name></wpt><wpt lat="12.9919229" lon="80.2308515"><name>177</name></wpt><wpt lat="12.9919236" lon="80.2308511"><name>178</name></wpt><wpt lat="12.9919237" lon="80.2308513"><name>179</name></wpt><wpt lat="12.9919232" lon="80.2308514"><name>180</name></wpt><wpt lat="12.9919243" lon="80.230851"><name>181</name></wpt><wpt lat="12.9919251" lon="80.2308511"><name>182</name></wpt><wpt lat="12.9919261" lon="80.2308505"><name>183</name></wpt><wpt lat="12.9919249" lon="80.2308518"><name>184</name></wpt><wpt lat="12.991922" lon="80.2308549"><name>185</name></wpt><wpt lat="12.9919225" lon="80.2308542"><name>186</name></wpt><wpt lat="12.9919229" lon="80.2308531"><name>187</name></wpt><wpt lat="12.9919237" lon="80.2308528"><name>188</name></wpt><wpt lat="12.9919233" lon="80.2308527"><name>189</name></wpt><wpt lat="12.9919223" lon="80.2308528"><name>190</name></wpt><wpt lat="12.9919211" lon="80.2308532"><name>191</name></wpt><wpt lat="12.9919217" lon="80.2308531"><name>192</name></wpt><wpt lat="12.991923" lon="80.230852"><name>193</name></wpt><wpt lat="12.9919236" lon="80.2308526"><name>194</name></wpt><wpt lat="12.991925" lon="80.2308519"><name>195</name></wpt><wpt lat="12.9919239" lon="80.2308539"><name>196</name></wpt><wpt lat="12.9919222" lon="80.2308549"><name>197</name></wpt><wpt lat="12.9919202" lon="80.2308557"><name>198</name></wpt><wpt lat="12.9919197" lon="80.2308548"><name>199</name></wpt><wpt lat="12.9919191" lon="80.2308559"><name>200</name></wpt><wpt lat="12.99192" lon="80.2308554"><name>201</name></wpt><wpt lat="12.9919184" lon="80.2308545"><name>202</name></wpt><wpt lat="12.9919183" lon="80.2308543"><name>203</name></wpt><wpt lat="12.9919176" lon="80.2308551"><name>204</name></wpt><wpt lat="12.9919185" lon="80.2308555"><name>205</name></wpt><wpt lat="12.9919179" lon="80.230857"><name>206</name></wpt><wpt lat="12.9919167" lon="80.2308587"><name>207</name></wpt><wpt lat="12.9919168" lon="80.2308603"><name>208</name></wpt><wpt lat="12.9919167" lon="80.2308617"><name>209</name></wpt><wpt lat="12.9919172" lon="80.230863"><name>210</name></wpt><wpt lat="12.9919174" lon="80.2308642"><name>211</name></wpt><wpt lat="12.9919169" lon="80.2308646"><name>212</name></wpt><wpt lat="12.9919172" lon="80.2308639"><name>213</name></wpt><wpt lat="12.9919174" lon="80.2308635"><name>214</name></wpt><wpt lat="12.9919182" lon="80.230863"><name>215</name></wpt><wpt lat="12.9919178" lon="80.2308617"><name>216</name></wpt><wpt lat="12.9919197" lon="80.23086"><name>217</name></wpt><wpt lat="12.9919199" lon="80.2308596"><name>218</name></wpt><wpt lat="12.9919223" lon="80.2308579"><name>219</name></wpt><wpt lat="12.9919229" lon="80.2308584"><name>220</name></wpt><wpt lat="12.9919239" lon="80.2308582"><name>221</name></wpt><wpt lat="12.9919255" lon="80.2308583"><name>222</name></wpt><wpt lat="12.9919253" lon="80.2308607"><name>223</name></wpt><wpt lat="12.9919256" lon="80.2308614"><name>224</name></wpt><wpt lat="12.9919255" lon="80.2308622"><name>225</name></wpt><wpt lat="12.9919252" lon="80.2308636"><name>226</name></wpt><wpt lat="12.9919244" lon="80.2308639"><name>227</name></wpt><wpt lat="12.9919231" lon="80.2308649"><name>228</name></wpt><wpt lat="12.9919215" lon="80.2308657"><name>229</name></wpt><wpt lat="12.9919207" lon="80.2308654"><name>230</name></wpt><wpt lat="12.9919203" lon="80.2308646"><name>231</name></wpt><wpt lat="12.9919196" lon="80.2308643"><name>232</name></wpt><wpt lat="12.9919199" lon="80.2308638"><name>233</name></wpt><wpt lat="12.9919202" lon="80.2308625"><name>234</name></wpt><wpt lat="12.9919205" lon="80.2308611"><name>235</name></wpt><wpt lat="12.9919208" lon="80.2308599"><name>236</name></wpt><wpt lat="12.99192" lon="80.23086"><name>237</name></wpt><wpt lat="12.9919198" lon="80.2308598"><name>238</name></wpt><wpt lat="12.9919191" lon="80.2308603"><name>239</name></wpt><wpt lat="12.9919188" lon="80.2308605"><name>240</name></wpt><wpt lat="12.9919186" lon="80.2308608"><name>241</name></wpt><wpt lat="12.9919179" lon="80.2308614"><name>242</name></wpt><wpt lat="12.9919169" lon="80.2308615"><name>243</name></wpt><wpt lat="12.9919165" lon="80.2308617"><name>244</name></wpt><wpt lat="12.9919164" lon="80.2308619"><name>245</name></wpt><wpt lat="12.9919166" lon="80.2308616"><name>246</name></wpt><wpt lat="12.9919164" lon="80.2308611"><name>247</name></wpt><wpt lat="12.9919157" lon="80.2308607"><name>248</name></wpt><wpt lat="12.9919146" lon="80.2308599"><name>249</name></wpt><wpt lat="12.9919136" lon="80.23086"><name>250</name></wpt><wpt lat="12.9919126" lon="80.2308594"><name>251</name></wpt><wpt lat="12.9919121" lon="80.230859"><name>252</name></wpt><wpt lat="12.9919112" lon="80.2308595"><name>253</name></wpt><wpt lat="12.9919106" lon="80.2308602"><name>254</name></wpt><wpt lat="12.9919098" lon="80.2308606"><name>255</name></wpt><wpt lat="12.9919085" lon="80.2308605"><name>256</name></wpt><wpt lat="12.9919082" lon="80.2308603"><name>257</name></wpt><wpt lat="12.9919087" lon="80.2308605"><name>258</name></wpt><wpt lat="12.9919101" lon="80.2308611"><name>259</name></wpt><wpt lat="12.9919077" lon="80.2308633"><name>260</name></wpt><wpt lat="12.9919074" lon="80.2308643"><name>261</name></wpt><wpt lat="12.991907" lon="80.2308645"><name>262</name></wpt><wpt lat="12.9919064" lon="80.2308654"><name>263</name></wpt><wpt lat="12.9919058" lon="80.2308646"><name>264</name></wpt><wpt lat="12.9919055" lon="80.2308647"><name>265</name></wpt><wpt lat="12.9919046" lon="80.2308662"><name>266</name></wpt><wpt lat="12.9919055" lon="80.2308652"><name>267</name></wpt><wpt lat="12.9919048" lon="80.2308662"><name>268</name></wpt><wpt lat="12.9919053" lon="80.2308663"><name>269</name></wpt><wpt lat="12.9919044" lon="80.2308665"><name>270</name></wpt><wpt lat="12.991904" lon="80.2308675"><name>271</name></wpt><wpt lat="12.9919045" lon="80.2308679"><name>272</name></wpt><wpt lat="12.9919035" lon="80.2308684"><name>273</name></wpt><wpt lat="12.991903" lon="80.2308694"><name>274</name></wpt><wpt lat="12.9919034" lon="80.2308697"><name>275</name></wpt><wpt lat="12.9919033" lon="80.2308699"><name>276</name></wpt><wpt lat="12.9919043" lon="80.2308692"><name>277</name></wpt><wpt lat="12.9919065" lon="80.2308685"><name>278</name></wpt><wpt lat="12.9919059" lon="80.2308707"><name>279</name></wpt><wpt lat="12.9919077" lon="80.2308701"><name>280</name></wpt><wpt lat="12.9919094" lon="80.2308686"><name>281</name></wpt><wpt lat="12.9919111" lon="80.2308672"><name>282</name></wpt><wpt lat="12.9919105" lon="80.2308675"><name>283</name></wpt><wpt lat="12.9919112" lon="80.2308672"><name>284</name></wpt><wpt lat="12.9919121" lon="80.2308674"><name>285</name></wpt><wpt lat="12.991912" lon="80.2308686"><name>286</name></wpt><wpt lat="12.9919125" lon="80.2308685"><name>287</name></wpt><wpt lat="12.9919133" lon="80.2308683"><name>288</name></wpt><wpt lat="12.991914" lon="80.2308693"><name>289</name></wpt><wpt lat="12.9919122" lon="80.2308703"><name>290</name></wpt><wpt lat="12.9919105" lon="80.2308714"><name>291</name></wpt><wpt lat="12.9919066" lon="80.2308747"><name>292</name></wpt><wpt lat="12.9919031" lon="80.2308772"><name>293</name></wpt><wpt lat="12.9919018" lon="80.2308779"><name>294</name></wpt><wpt lat="12.9919007" lon="80.2308787"><name>295</name></wpt><wpt lat="12.9918984" lon="80.2308802"><name>296</name></wpt><wpt lat="12.9918958" lon="80.2308822"><name>297</name></wpt><wpt lat="12.9918938" lon="80.2308835"><name>298</name></wpt><wpt lat="12.9918916" lon="80.2308846"><name>299</name></wpt><wpt lat="12.9918889" lon="80.2308863"><name>300</name></wpt><wpt lat="12.9918864" lon="80.2308871"><name>301</name></wpt><wpt lat="12.9918865" lon="80.2308873"><name>302</name></wpt><wpt lat="12.9918855" lon="80.2308874"><name>303</name></wpt><wpt lat="12.991886" lon="80.2308866"><name>304</name></wpt><wpt lat="12.9918851" lon="80.230885"><name>305</name></wpt><wpt lat="12.9918865" lon="80.2308822"><name>306</name></wpt><wpt lat="12.9918877" lon="80.230879"><name>307</name></wpt><wpt lat="12.9918891" lon="80.2308772"><name>308</name></wpt><wpt lat="12.9918897" lon="80.2308761"><name>309</name></wpt><wpt lat="12.9918892" lon="80.2308743"><name>310</name></wpt><wpt lat="12.9918857" lon="80.2308748"><name>311</name></wpt><wpt lat="12.9918831" lon="80.2308753"><name>312</name></wpt><wpt lat="12.9918807" lon="80.2308764"><name>313</name></wpt><wpt lat="12.9918792" lon="80.230877"><name>314</name></wpt><wpt lat="12.9918802" lon="80.2308762"><name>315</name></wpt><wpt lat="12.9918782" lon="80.2308765"><name>316</name></wpt><wpt lat="12.9918749" lon="80.2308776"><name>317</name></wpt><wpt lat="12.9918707" lon="80.2308787"><name>318</name></wpt><wpt lat="12.9918689" lon="80.2308788"><name>319</name></wpt><wpt lat="12.9918652" lon="80.2308798"><name>320</name></wpt><wpt lat="12.991869" lon="80.2308774"><name>321</name></wpt><wpt lat="12.9918731" lon="80.2308753"><name>322</name></wpt><wpt lat="12.9918762" lon="80.2308739"><name>323</name></wpt><wpt lat="12.9918787" lon="80.2308727"><name>324</name></wpt><wpt lat="12.9918788" lon="80.230873"><name>325</name></wpt><wpt lat="12.9918792" lon="80.2308729"><name>326</name></wpt><wpt lat="12.9918793" lon="80.230873"><name>327</name></wpt><wpt lat="12.9918788" lon="80.2308732"><name>328</name></wpt><wpt lat="12.9918778" lon="80.2308728"><name>329</name></wpt><wpt lat="12.9918764" lon="80.2308739"><name>330</name></wpt><wpt lat="12.9918757" lon="80.2308743"><name>331</name></wpt><wpt lat="12.9918759" lon="80.2308748"><name>332</name></wpt><wpt lat="12.9918757" lon="80.2308757"><name>333</name></wpt><wpt lat="12.9918749" lon="80.2308765"><name>334</name></wpt><wpt lat="12.9918744" lon="80.230877"><name>335</name></wpt><wpt lat="12.9918741" lon="80.2308775"><name>336</name></wpt><wpt lat="12.991874" lon="80.2308778"><name>337</name></wpt><wpt lat="12.9918742" lon="80.2308781"><name>338</name></wpt><wpt lat="12.9918739" lon="80.2308782"><name>339</name></wpt><wpt lat="12.9918734" lon="80.2308786"><name>340</name></wpt><wpt lat="12.9918728" lon="80.2308789"><name>341</name></wpt><wpt lat="12.9918722" lon="80.2308792"><name>342</name></wpt><wpt lat="12.9918712" lon="80.2308795"><name>343</name></wpt><wpt lat="12.9918695" lon="80.23088"><name>344</name></wpt><wpt lat="12.9918684" lon="80.2308804"><name>345</name></wpt><wpt lat="12.9918682" lon="80.2308808"><name>346</name></wpt><wpt lat="12.9918677" lon="80.2308812"><name>347</name></wpt><wpt lat="12.9918665" lon="80.2308814"><name>348</name></wpt><wpt lat="12.9918659" lon="80.2308815"><name>349</name></wpt><wpt lat="12.9918646" lon="80.2308821"><name>350</name></wpt><wpt lat="12.9918634" lon="80.2308826"><name>351</name></wpt><wpt lat="12.991862" lon="80.2308834"><name>352</name></wpt><wpt lat="12.9918609" lon="80.2308841"><name>353</name></wpt><wpt lat="12.9918595" lon="80.2308845"><name>354</name></wpt><wpt lat="12.9918581" lon="80.230885"><name>355</name></wpt><wpt lat="12.9918568" lon="80.2308856"><name>356</name></wpt><wpt lat="12.9918559" lon="80.2308862"><name>357</name></wpt><wpt lat="12.9918551" lon="80.230887"><name>358</name></wpt><wpt lat="12.9918547" lon="80.2308874"><name>359</name></wpt><wpt lat="12.9918543" lon="80.2308882"><name>360</name></wpt><wpt lat="12.9918525" lon="80.2308886"><name>361</name></wpt><wpt lat="12.9918511" lon="80.2308896"><name>362</name></wpt><wpt lat="12.99185" lon="80.2308902"><name>363</name></wpt><wpt lat="12.9918481" lon="80.2308905"><name>364</name></wpt><wpt lat="12.9918477" lon="80.2308906"><name>365</name></wpt><wpt lat="12.9918474" lon="80.2308908"><name>366</name></wpt><wpt lat="12.9918461" lon="80.2308906"><name>367</name></wpt><wpt lat="12.9918456" lon="80.2308909"><name>368</name></wpt><wpt lat="12.9918452" lon="80.2308912"><name>369</name></wpt><wpt lat="12.9918448" lon="80.2308913"><name>370</name></wpt><wpt lat="12.9918437" lon="80.2308914"><name>371</name></wpt><wpt lat="12.9918435" lon="80.2308913"><name>372</name></wpt><wpt lat="12.9918429" lon="80.2308918"><name>373</name></wpt><wpt lat="12.9918445" lon="80.2308907"><name>374</name></wpt><wpt lat="12.9918457" lon="80.23089"><name>375</name></wpt><wpt lat="12.9918455" lon="80.2308897"><name>376</name></wpt><wpt lat="12.9918448" lon="80.2308903"><name>377</name></wpt><wpt lat="12.9918443" lon="80.2308911"><name>378</name></wpt><wpt lat="12.9918442" lon="80.230891"><name>379</name></wpt><wpt lat="12.9918441" lon="80.2308909"><name>380</name></wpt></gpx>